{
"type": "FeatureCollection",
"name": "石川地価2025",
"crs": { "type": "name", "properties": { "name": "urn:ogc:def:crs:OGC:1.3:CRS84" } },
"features": [
{ "type": "Feature", "properties": { "円/ｍ2": 65500, "対前年変動率%": 2.3, "基準地の地名": "金沢", "所在並びに地番": "石川県　金沢市粟崎町３丁目１０５番", "前面道路の道路区分": "市区町村道", "基準地周辺の土地利用の状況": "中規模一般住宅が建ち並ぶ郊外の区画整然とした住宅地域", "都市計画の用途地域": "2中専", "防火地域": "_", "都市計画区分": "市街化" }, "geometry": { "type": "Point", "coordinates": [ 136.62562083, 36.62718194 ] } },
{ "type": "Feature", "properties": { "円/ｍ2": 112000, "対前年変動率%": 2.8, "基準地の地名": "金沢", "所在並びに地番": "石川県　金沢市神宮寺２丁目３１１番", "前面道路の道路区分": "市区町村道", "基準地周辺の土地利用の状況": "一般住宅や共同住宅のほか空地も見られる区画整理済みの住宅地域", "都市計画の用途地域": "準工", "防火地域": "_", "都市計画区分": "市街化" }, "geometry": { "type": "Point", "coordinates": [ 136.667823879999986, 36.585855 ] } },
{ "type": "Feature", "properties": { "円/ｍ2": 97000, "対前年変動率%": 3.7, "基準地の地名": "金沢", "所在並びに地番": "石川県　金沢市小将町１２７番", "前面道路の道路区分": "市区町村道", "基準地周辺の土地利用の状況": "中規模一般住宅と低層の共同住宅が混在する既成住宅地域", "都市計画の用途地域": "1住居", "防火地域": "準防", "都市計画区分": "市街化" }, "geometry": { "type": "Point", "coordinates": [ 136.66624, 36.56369 ] } },
{ "type": "Feature", "properties": { "円/ｍ2": 75000, "対前年変動率%": 1.4, "基準地の地名": "金沢", "所在並びに地番": "石川県　金沢市涌波４丁目２４５番", "前面道路の道路区分": "市区町村道", "基準地周辺の土地利用の状況": "中規模一般住宅が多い区画整理された住宅地域", "都市計画の用途地域": "1中専", "防火地域": "_", "都市計画区分": "市街化" }, "geometry": { "type": "Point", "coordinates": [ 136.685338879999989, 36.53694194 ] } },
{ "type": "Feature", "properties": { "円/ｍ2": 98000, "対前年変動率%": 1.0, "基準地の地名": "金沢", "所在並びに地番": "石川県　金沢市笠舞１丁目３４３番", "前面道路の道路区分": "市区町村道", "基準地周辺の土地利用の状況": "中規模一般住宅が多い閑静な住宅地域", "都市計画の用途地域": "1中専", "防火地域": "_", "都市計画区分": "市街化" }, "geometry": { "type": "Point", "coordinates": [ 136.674316940000011, 36.54859722 ] } },
{ "type": "Feature", "properties": { "円/ｍ2": 78000, "対前年変動率%": 4.0, "基準地の地名": "金沢", "所在並びに地番": "石川県　金沢市四十万町北イ２２９番１", "前面道路の道路区分": "市区町村道", "基準地周辺の土地利用の状況": "一般住宅等が建ち並ぶ区画整然とした住宅地域", "都市計画の用途地域": "1低専", "防火地域": "_", "都市計画区分": "市街化" }, "geometry": { "type": "Point", "coordinates": [ 136.61388166, 36.50320277 ] } },
{ "type": "Feature", "properties": { "円/ｍ2": 90000, "対前年変動率%": 4.7, "基準地の地名": "金沢", "所在並びに地番": "石川県　金沢市野田４丁目１４番外", "前面道路の道路区分": "市区町村道", "基準地周辺の土地利用の状況": "中規模一般住宅が多い区画整理された住宅地域", "都市計画の用途地域": "2住居", "防火地域": "_", "都市計画区分": "市街化" }, "geometry": { "type": "Point", "coordinates": [ 136.66600638, 36.53563944 ] } },
{ "type": "Feature", "properties": { "円/ｍ2": 51000, "対前年変動率%": -1.9, "基準地の地名": "金沢", "所在並びに地番": "石川県　金沢市窪３丁目３１１番", "前面道路の道路区分": "市区町村道", "基準地周辺の土地利用の状況": "幹線道路背後の傾斜のある郊外の住宅地域", "都市計画の用途地域": "1低専", "防火地域": "_", "都市計画区分": "市街化" }, "geometry": { "type": "Point", "coordinates": [ 136.64342972, 36.523905 ] } },
{ "type": "Feature", "properties": { "円/ｍ2": 86000, "対前年変動率%": 6.2, "基準地の地名": "金沢", "所在並びに地番": "石川県　金沢市高畠２丁目１３１番２", "前面道路の道路区分": "市区町村道", "基準地周辺の土地利用の状況": "一般住宅等が建ち並ぶ区画整然とした住宅地域", "都市計画の用途地域": "1住居", "防火地域": "_", "都市計画区分": "市街化" }, "geometry": { "type": "Point", "coordinates": [ 136.61068916, 36.57072611 ] } },
{ "type": "Feature", "properties": { "円/ｍ2": 125000, "対前年変動率%": 3.3, "基準地の地名": "金沢", "所在並びに地番": "石川県　金沢市藤江北１丁目４８８番", "前面道路の道路区分": "市区町村道", "基準地周辺の土地利用の状況": "共同住宅、農地が混在する区画整理済の住宅地域", "都市計画の用途地域": "1住居", "防火地域": "_", "都市計画区分": "市街化" }, "geometry": { "type": "Point", "coordinates": [ 136.62460694, 36.58912888 ] } },
{ "type": "Feature", "properties": { "円/ｍ2": 78000, "対前年変動率%": 0.0, "基準地の地名": "金沢", "所在並びに地番": "石川県　金沢市西大桑町９２２番", "前面道路の道路区分": "市区町村道", "基準地周辺の土地利用の状況": "一般住宅が多い区画整然とした住宅地域", "都市計画の用途地域": "1低専", "防火地域": "_", "都市計画区分": "市街化" }, "geometry": { "type": "Point", "coordinates": [ 136.67171833, 36.54059694 ] } },
{ "type": "Feature", "properties": { "円/ｍ2": 89000, "対前年変動率%": 4.1, "基準地の地名": "金沢", "所在並びに地番": "石川県　金沢市矢木２丁目３９３番", "前面道路の道路区分": "市区町村道", "基準地周辺の土地利用の状況": "中規模一般住宅が多い郊外の区画整理済の住宅地域", "都市計画の用途地域": "2中専", "防火地域": "_", "都市計画区分": "市街化" }, "geometry": { "type": "Point", "coordinates": [ 136.59325666, 36.55680916 ] } },
{ "type": "Feature", "properties": { "円/ｍ2": 101000, "対前年変動率%": 3.1, "基準地の地名": "金沢", "所在並びに地番": "石川県　金沢市新神田１丁目９５番２", "前面道路の道路区分": "市区町村道", "基準地周辺の土地利用の状況": "中規模一般住宅を中心に、農地も残る区画整然とした低層住宅地域", "都市計画の用途地域": "1住居", "防火地域": "_", "都市計画区分": "市街化" }, "geometry": { "type": "Point", "coordinates": [ 136.63367527, 36.56372666 ] } },
{ "type": "Feature", "properties": { "円/ｍ2": 86000, "対前年変動率%": 2.4, "基準地の地名": "金沢", "所在並びに地番": "石川県　金沢市高尾台１丁目３５７番", "前面道路の道路区分": "市区町村道", "基準地周辺の土地利用の状況": "中規模一般住宅が多い郊外の区画整然とした住宅地域", "都市計画の用途地域": "1低専", "防火地域": "_", "都市計画区分": "市街化" }, "geometry": { "type": "Point", "coordinates": [ 136.636560550000013, 36.52265805 ] } },
{ "type": "Feature", "properties": { "円/ｍ2": 124000, "対前年変動率%": 1.6, "基準地の地名": "金沢", "所在並びに地番": "石川県　金沢市瓢箪町７４６番", "前面道路の道路区分": "市区町村道", "基準地周辺の土地利用の状況": "小規模一般住宅が建ち並ぶ既成住宅地域", "都市計画の用途地域": "1住居", "防火地域": "準防", "都市計画区分": "市街化" }, "geometry": { "type": "Point", "coordinates": [ 136.659296110000014, 36.57722833 ] } },
{ "type": "Feature", "properties": { "円/ｍ2": 58000, "対前年変動率%": 1.8, "基準地の地名": "金沢", "所在並びに地番": "石川県　金沢市金石北２丁目１３９番", "前面道路の道路区分": "市区町村道", "基準地周辺の土地利用の状況": "中規模一般住宅が多い海岸に近い住宅地域", "都市計画の用途地域": "1住居", "防火地域": "_", "都市計画区分": "市街化" }, "geometry": { "type": "Point", "coordinates": [ 136.597798329999989, 36.60768555 ] } },
{ "type": "Feature", "properties": { "円/ｍ2": 106000, "対前年変動率%": 3.9, "基準地の地名": "金沢", "所在並びに地番": "石川県　金沢市松村２丁目２９８番", "前面道路の道路区分": "市区町村道", "基準地周辺の土地利用の状況": "中規模一般住宅が建ち並ぶ郊外の住宅地域", "都市計画の用途地域": "2中専", "防火地域": "_", "都市計画区分": "市街化" }, "geometry": { "type": "Point", "coordinates": [ 136.61752861, 36.58586805 ] } },
{ "type": "Feature", "properties": { "円/ｍ2": 89500, "対前年変動率%": 2.9, "基準地の地名": "金沢", "所在並びに地番": "石川県　金沢市割出町２７８番５", "前面道路の道路区分": "道路", "基準地周辺の土地利用の状況": "一般住宅が建ち並ぶ国道背後の住宅地域", "都市計画の用途地域": "2中専", "防火地域": "_", "都市計画区分": "市街化" }, "geometry": { "type": "Point", "coordinates": [ 136.641256379999987, 36.59796638 ] } },
{ "type": "Feature", "properties": { "円/ｍ2": 77000, "対前年変動率%": 4.1, "基準地の地名": "金沢", "所在並びに地番": "石川県　金沢市みどり２丁目２０番", "前面道路の道路区分": "市区町村道", "基準地周辺の土地利用の状況": "一般住宅が建ち並ぶ郊外の区画整然とした住宅地域", "都市計画の用途地域": "1低専", "防火地域": "_", "都市計画区分": "市街化" }, "geometry": { "type": "Point", "coordinates": [ 136.58503611, 36.56841888 ] } },
{ "type": "Feature", "properties": { "円/ｍ2": 80000, "対前年変動率%": 1.3, "基準地の地名": "金沢", "所在並びに地番": "石川県　金沢市旭町２丁目３２１番４", "前面道路の道路区分": "市区町村道", "基準地周辺の土地利用の状況": "中規模一般住宅、アパート等が混在する住宅地域", "都市計画の用途地域": "1中専", "防火地域": "_", "都市計画区分": "市街化" }, "geometry": { "type": "Point", "coordinates": [ 136.685208609999989, 36.55221805 ] } },
{ "type": "Feature", "properties": { "円/ｍ2": 78500, "対前年変動率%": 1.9, "基準地の地名": "金沢", "所在並びに地番": "石川県　金沢市荒屋町イ３９番２２", "前面道路の道路区分": "市区町村道", "基準地周辺の土地利用の状況": "中規模一般住宅が多い郊外の区画整然とした住宅地域", "都市計画の用途地域": "1中専", "防火地域": "_", "都市計画区分": "市街化" }, "geometry": { "type": "Point", "coordinates": [ 136.68553638, 36.61349916 ] } },
{ "type": "Feature", "properties": { "円/ｍ2": 26000, "対前年変動率%": -1.9, "基準地の地名": "金沢", "所在並びに地番": "石川県　金沢市山の上町７５８番", "前面道路の道路区分": "市区町村道", "基準地周辺の土地利用の状況": "一般住宅の多い高台の既成住宅地域", "都市計画の用途地域": "1中専", "防火地域": "_", "都市計画区分": "市街化" }, "geometry": { "type": "Point", "coordinates": [ 136.67373722, 36.57597444 ] } },
{ "type": "Feature", "properties": { "円/ｍ2": 129000, "対前年変動率%": 3.2, "基準地の地名": "金沢", "所在並びに地番": "石川県　金沢市諸江町２８０８番外", "前面道路の道路区分": "市区町村道", "基準地周辺の土地利用の状況": "中規模一般住宅、共同住宅、事務所等が混在する区画整理済の住宅地域", "都市計画の用途地域": "1住居", "防火地域": "_", "都市計画区分": "市街化" }, "geometry": { "type": "Point", "coordinates": [ 136.64177222, 36.59331722 ] } },
{ "type": "Feature", "properties": { "円/ｍ2": 85000, "対前年変動率%": 3.0, "基準地の地名": "金沢", "所在並びに地番": "石川県　金沢市疋田町ハ３５３番", "前面道路の道路区分": "市区町村道", "基準地周辺の土地利用の状況": "中規模一般住宅が多い閑静な住宅地域", "都市計画の用途地域": "1住居", "防火地域": "_", "都市計画区分": "市街化" }, "geometry": { "type": "Point", "coordinates": [ 136.676329439999989, 36.60259694 ] } },
{ "type": "Feature", "properties": { "円/ｍ2": 175000, "対前年変動率%": 7.4, "基準地の地名": "金沢", "所在並びに地番": "石川県　金沢市長町１丁目１８５番２外", "前面道路の道路区分": "市区町村道", "基準地周辺の土地利用の状況": "住宅、アパート、マンション等が混在する中心部の既成住宅地域", "都市計画の用途地域": "1住居", "防火地域": "準防", "都市計画区分": "市街化" }, "geometry": { "type": "Point", "coordinates": [ 136.65044638, 36.56436916 ] } },
{ "type": "Feature", "properties": { "円/ｍ2": 108000, "対前年変動率%": 1.9, "基準地の地名": "金沢", "所在並びに地番": "石川県　金沢市長坂２丁目１５０９番１", "前面道路の道路区分": "市区町村道", "基準地周辺の土地利用の状況": "一般住宅、アパートのほか空地も見られる住宅地域", "都市計画の用途地域": "1中専", "防火地域": "_", "都市計画区分": "市街化" }, "geometry": { "type": "Point", "coordinates": [ 136.660077769999987, 36.53660833 ] } },
{ "type": "Feature", "properties": { "円/ｍ2": 87000, "対前年変動率%": 2.4, "基準地の地名": "金沢", "所在並びに地番": "石川県　金沢市額新町１丁目１７４番", "前面道路の道路区分": "市区町村道", "基準地周辺の土地利用の状況": "低層一般住宅の多い通り沿いの住宅地域", "都市計画の用途地域": "2住居", "防火地域": "_", "都市計画区分": "市街化" }, "geometry": { "type": "Point", "coordinates": [ 136.62151277000001, 36.52026361 ] } },
{ "type": "Feature", "properties": { "円/ｍ2": 92000, "対前年変動率%": 1.1, "基準地の地名": "金沢", "所在並びに地番": "石川県　金沢市弥生２丁目２２６番１", "前面道路の道路区分": "市区町村道", "基準地周辺の土地利用の状況": "中規模一般住宅が多い既成住宅地域", "都市計画の用途地域": "2中専", "防火地域": "準防", "都市計画区分": "市街化" }, "geometry": { "type": "Point", "coordinates": [ 136.64302027, 36.54655027 ] } },
{ "type": "Feature", "properties": { "円/ｍ2": 109000, "対前年変動率%": 1.9, "基準地の地名": "金沢", "所在並びに地番": "石川県　金沢市寺地１丁目２１４番", "前面道路の道路区分": "市区町村道", "基準地周辺の土地利用の状況": "中規模一般住宅が多い区画整理済の閑静な住宅地域", "都市計画の用途地域": "1低専", "防火地域": "_", "都市計画区分": "市街化" }, "geometry": { "type": "Point", "coordinates": [ 136.640693879999986, 36.53728611 ] } },
{ "type": "Feature", "properties": { "円/ｍ2": 92500, "対前年変動率%": 2.8, "基準地の地名": "金沢", "所在並びに地番": "石川県　金沢市米泉町５丁目３番４", "前面道路の道路区分": "市区町村道", "基準地周辺の土地利用の状況": "小規模の一般住宅が建ち並ぶ閑静な住宅地域", "都市計画の用途地域": "1住居", "防火地域": "_", "都市計画区分": "市街化" }, "geometry": { "type": "Point", "coordinates": [ 136.625287500000013, 36.54837055 ] } },
{ "type": "Feature", "properties": { "円/ｍ2": 101000, "対前年変動率%": 3.1, "基準地の地名": "金沢", "所在並びに地番": "石川県　金沢市泉本町１丁目１１７番２", "前面道路の道路区分": "市区町村道", "基準地周辺の土地利用の状況": "中規模一般住宅が建ち並ぶほか低層の共同住宅も混在する住宅地域", "都市計画の用途地域": "2中専", "防火地域": "_", "都市計画区分": "市街化" }, "geometry": { "type": "Point", "coordinates": [ 136.63503888, 36.54637805 ] } },
{ "type": "Feature", "properties": { "円/ｍ2": 193000, "対前年変動率%": 2.7, "基準地の地名": "金沢", "所在並びに地番": "石川県　金沢市彦三町１丁目６１３番", "前面道路の道路区分": "市区町村道", "基準地周辺の土地利用の状況": "一般住宅の中にマンションも見られる住宅地域", "都市計画の用途地域": "1住居", "防火地域": "準防", "都市計画区分": "市街化" }, "geometry": { "type": "Point", "coordinates": [ 136.659503050000012, 36.574315 ] } },
{ "type": "Feature", "properties": { "円/ｍ2": 127000, "対前年変動率%": 2.4, "基準地の地名": "金沢", "所在並びに地番": "石川県　金沢市緑が丘２３６番", "前面道路の道路区分": "市区町村道", "基準地周辺の土地利用の状況": "一般住宅、アパート等が混在する既成住宅地域", "都市計画の用途地域": "1中専", "防火地域": "_", "都市計画区分": "市街化" }, "geometry": { "type": "Point", "coordinates": [ 136.65564472, 36.54188638 ] } },
{ "type": "Feature", "properties": { "円/ｍ2": 84000, "対前年変動率%": 2.4, "基準地の地名": "金沢", "所在並びに地番": "石川県　金沢市光が丘２丁目２４番", "前面道路の道路区分": "市区町村道", "基準地周辺の土地利用の状況": "中規模一般住宅が多い閑静な住宅地域", "都市計画の用途地域": "1低専", "防火地域": "_", "都市計画区分": "市街化" }, "geometry": { "type": "Point", "coordinates": [ 136.62675, 36.51733111 ] } },
{ "type": "Feature", "properties": { "円/ｍ2": 72500, "対前年変動率%": 2.1, "基準地の地名": "金沢", "所在並びに地番": "石川県　金沢市金市町イ５番２０", "前面道路の道路区分": "市区町村道", "基準地周辺の土地利用の状況": "中規模一般住宅が建ち並ぶ郊外の住宅地域", "都市計画の用途地域": "1住居", "防火地域": "_", "都市計画区分": "市街化" }, "geometry": { "type": "Point", "coordinates": [ 136.68110694, 36.60748888 ] } },
{ "type": "Feature", "properties": { "円/ｍ2": 243000, "対前年変動率%": 3.4, "基準地の地名": "金沢", "所在並びに地番": "石川県　金沢市本町２丁目８９番", "前面道路の道路区分": "市区町村道", "基準地周辺の土地利用の状況": "従来からの住宅のほかに店舗、営業所等も混在する駅に近い住宅地域", "都市計画の用途地域": "商業", "防火地域": "準防", "都市計画区分": "市街化" }, "geometry": { "type": "Point", "coordinates": [ 136.65061861, 36.57513361 ] } },
{ "type": "Feature", "properties": { "円/ｍ2": 39000, "対前年変動率%": 0.0, "基準地の地名": "金沢", "所在並びに地番": "石川県　金沢市末町九字１番４", "前面道路の道路区分": "市区町村道", "基準地周辺の土地利用の状況": "中規模一般住宅が多い郊外の住宅地域", "都市計画の用途地域": "1中専", "防火地域": "_", "都市計画区分": "市街化" }, "geometry": { "type": "Point", "coordinates": [ 136.68780222, 36.519925 ] } },
{ "type": "Feature", "properties": { "円/ｍ2": 76000, "対前年変動率%": 4.8, "基準地の地名": "金沢", "所在並びに地番": "石川県　金沢市額乙丸町ニ１１１番２", "前面道路の道路区分": "都道府県道", "基準地周辺の土地利用の状況": "店舗、営業所等が混在する幹線道路沿いの住宅地域", "都市計画の用途地域": "2住居", "防火地域": "_", "都市計画区分": "市街化" }, "geometry": { "type": "Point", "coordinates": [ 136.61569805, 36.51258 ] } },
{ "type": "Feature", "properties": { "円/ｍ2": 105000, "対前年変動率%": 2.9, "基準地の地名": "金沢", "所在並びに地番": "石川県　金沢市幸町８５番", "前面道路の道路区分": "市区町村道", "基準地周辺の土地利用の状況": "一般住宅を中心に、店舗も見られる市中心部に近い住宅地域", "都市計画の用途地域": "1住居", "防火地域": "準防", "都市計画区分": "市街化" }, "geometry": { "type": "Point", "coordinates": [ 136.657686109999986, 36.553055 ] } },
{ "type": "Feature", "properties": { "円/ｍ2": 95000, "対前年変動率%": 2.2, "基準地の地名": "金沢", "所在並びに地番": "石川県　金沢市窪７丁目３１２番", "前面道路の道路区分": "市区町村道", "基準地周辺の土地利用の状況": "中規模一般住宅が多い幹線道路背後の住宅地域", "都市計画の用途地域": "1低専", "防火地域": "_", "都市計画区分": "市街化" }, "geometry": { "type": "Point", "coordinates": [ 136.63892666000001, 36.53037555 ] } },
{ "type": "Feature", "properties": { "円/ｍ2": 113000, "対前年変動率%": 0.9, "基準地の地名": "金沢", "所在並びに地番": "石川県　金沢市泉野町４丁目１０９番", "前面道路の道路区分": "市区町村道", "基準地周辺の土地利用の状況": "中規模一般住宅が建ち並ぶ閑静な住宅地域", "都市計画の用途地域": "1中専", "防火地域": "_", "都市計画区分": "市街化" }, "geometry": { "type": "Point", "coordinates": [ 136.650632769999987, 36.54522444 ] } },
{ "type": "Feature", "properties": { "円/ｍ2": 83500, "対前年変動率%": 1.2, "基準地の地名": "金沢", "所在並びに地番": "石川県　金沢市寺町３丁目１７９番", "前面道路の道路区分": "市区町村道", "基準地周辺の土地利用の状況": "中小規模一般住宅が建ち並ぶ既成住宅地域", "都市計画の用途地域": "1住居", "防火地域": "_", "都市計画区分": "市街化" }, "geometry": { "type": "Point", "coordinates": [ 136.655907500000012, 36.55168055 ] } },
{ "type": "Feature", "properties": { "円/ｍ2": 97500, "対前年変動率%": 3.7, "基準地の地名": "金沢", "所在並びに地番": "石川県　金沢市西金沢３丁目６１３番", "前面道路の道路区分": "市区町村道", "基準地周辺の土地利用の状況": "中規模一般住宅の中に空地が見られる区画整理済の住宅地域", "都市計画の用途地域": "1住居", "防火地域": "_", "都市計画区分": "市街化" }, "geometry": { "type": "Point", "coordinates": [ 136.61389444, 36.55420833 ] } },
{ "type": "Feature", "properties": { "円/ｍ2": 99000, "対前年変動率%": 2.6, "基準地の地名": "金沢", "所在並びに地番": "石川県　金沢市入江１丁目５５５番２", "前面道路の道路区分": "市区町村道", "基準地周辺の土地利用の状況": "一般住宅のほかにアパート等が見られる住宅地域", "都市計画の用途地域": "1住居", "防火地域": "_", "都市計画区分": "市街化" }, "geometry": { "type": "Point", "coordinates": [ 136.628901109999987, 36.56628194 ] } },
{ "type": "Feature", "properties": { "円/ｍ2": 91000, "対前年変動率%": 2.2, "基準地の地名": "金沢", "所在並びに地番": "石川県　金沢市神谷内町ハ６８番９", "前面道路の道路区分": "市区町村道", "基準地周辺の土地利用の状況": "中小規模一般住宅が多い郊外の住宅地域", "都市計画の用途地域": "1住居", "防火地域": "_", "都市計画区分": "市街化" }, "geometry": { "type": "Point", "coordinates": [ 136.67783777, 36.59770444 ] } },
{ "type": "Feature", "properties": { "円/ｍ2": 117000, "対前年変動率%": 0.9, "基準地の地名": "金沢", "所在並びに地番": "石川県　金沢市大友２丁目２７２番", "前面道路の道路区分": "市区町村道", "基準地周辺の土地利用の状況": "幹線道路近くに戸建住宅が建ち並ぶ区画整然とした住宅地域", "都市計画の用途地域": "1住居", "防火地域": "_", "都市計画区分": "市街化" }, "geometry": { "type": "Point", "coordinates": [ 136.629341110000013, 36.603805 ] } },
{ "type": "Feature", "properties": { "円/ｍ2": 98000, "対前年変動率%": 4.3, "基準地の地名": "金沢", "所在並びに地番": "石川県　金沢市松村６丁目１７６番２", "前面道路の道路区分": "市区町村道", "基準地周辺の土地利用の状況": "一般住宅のほか農地等が見られる郊外の住宅地域", "都市計画の用途地域": "1住居", "防火地域": "_", "都市計画区分": "市街化" }, "geometry": { "type": "Point", "coordinates": [ 136.60940222, 36.59071833 ] } },
{ "type": "Feature", "properties": { "円/ｍ2": 48500, "対前年変動率%": 0.0, "基準地の地名": "金沢", "所在並びに地番": "石川県　金沢市太陽が丘２丁目１３３番", "前面道路の道路区分": "市区町村道", "基準地周辺の土地利用の状況": "丘陵地を大規模開発した郊外の閑静な住宅地域", "都市計画の用途地域": "1低専", "防火地域": "_", "都市計画区分": "市街化" }, "geometry": { "type": "Point", "coordinates": [ 136.70540166, 36.5314125 ] } },
{ "type": "Feature", "properties": { "円/ｍ2": 104000, "対前年変動率%": 4.5, "基準地の地名": "金沢", "所在並びに地番": "石川県　金沢市畝田東３丁目１０５番", "前面道路の道路区分": "市区町村道", "基準地周辺の土地利用の状況": "中規模一般住宅等が建ち並ぶ郊外の住宅地域", "都市計画の用途地域": "2中専", "防火地域": "_", "都市計画区分": "市街化" }, "geometry": { "type": "Point", "coordinates": [ 136.61480777, 36.59715416 ] } },
{ "type": "Feature", "properties": { "円/ｍ2": 39000, "対前年変動率%": 1.3, "基準地の地名": "金沢", "所在並びに地番": "石川県　金沢市南新保町イ８４番", "前面道路の道路区分": "市区町村道", "基準地周辺の土地利用の状況": "農家住宅、一般住宅等が混在する在来集落的住宅地域", "都市計画の用途地域": "1住居", "防火地域": "_", "都市計画区分": "市街化" }, "geometry": { "type": "Point", "coordinates": [ 136.634760269999987, 36.59874222 ] } },
{ "type": "Feature", "properties": { "円/ｍ2": 95000, "対前年変動率%": 3.3, "基準地の地名": "金沢", "所在並びに地番": "石川県　金沢市増泉１丁目５８１番４", "前面道路の道路区分": "市区町村道", "基準地周辺の土地利用の状況": "一般住宅のほかアパート等も見られる住宅地域", "都市計画の用途地域": "準工", "防火地域": "_", "都市計画区分": "市街化" }, "geometry": { "type": "Point", "coordinates": [ 136.64269194, 36.55764805 ] } },
{ "type": "Feature", "properties": { "円/ｍ2": 106000, "対前年変動率%": 3.9, "基準地の地名": "金沢", "所在並びに地番": "石川県　金沢市京町９３番１", "前面道路の道路区分": "市区町村道", "基準地周辺の土地利用の状況": "住宅、工場、営業所等が混在する住宅地域", "都市計画の用途地域": "準工", "防火地域": "_", "都市計画区分": "市街化" }, "geometry": { "type": "Point", "coordinates": [ 136.65745972, 36.58269 ] } },
{ "type": "Feature", "properties": { "円/ｍ2": 98000, "対前年変動率%": 3.2, "基準地の地名": "金沢", "所在並びに地番": "石川県　金沢市大和町９１番", "前面道路の道路区分": "市区町村道", "基準地周辺の土地利用の状況": "一般住宅等が建ち並ぶ幹線街路背後の住宅地域", "都市計画の用途地域": "準工", "防火地域": "_", "都市計画区分": "市街化" }, "geometry": { "type": "Point", "coordinates": [ 136.637493049999989, 36.57029194 ] } },
{ "type": "Feature", "properties": { "円/ｍ2": 84000, "対前年変動率%": 3.7, "基準地の地名": "金沢", "所在並びに地番": "石川県　金沢市近岡町９２３番２５", "前面道路の道路区分": "市区町村道", "基準地周辺の土地利用の状況": "一般住宅が建ち並ぶ幹線道路背後の区画整然とした住宅地域", "都市計画の用途地域": "準工", "防火地域": "_", "都市計画区分": "市街化" }, "geometry": { "type": "Point", "coordinates": [ 136.63160083, 36.6160075 ] } },
{ "type": "Feature", "properties": { "円/ｍ2": 129000, "対前年変動率%": 3.2, "基準地の地名": "金沢", "所在並びに地番": "石川県　金沢市三社町１５２番６", "前面道路の道路区分": "市区町村道", "基準地周辺の土地利用の状況": "中規模一般住宅が建ち並ぶ中心部に近い住宅地域", "都市計画の用途地域": "準工", "防火地域": "準防", "都市計画区分": "市街化" }, "geometry": { "type": "Point", "coordinates": [ 136.64474138, 36.57204527 ] } },
{ "type": "Feature", "properties": { "円/ｍ2": 34300, "対前年変動率%": -0.6, "基準地の地名": "金沢", "所在並びに地番": "石川県　金沢市赤土町ヘ１０６番２", "前面道路の道路区分": "市区町村道", "基準地周辺の土地利用の状況": "幹線道路背後の農家住宅も見られる郊外の住宅地域", "都市計画の用途地域": "_", "防火地域": "_", "都市計画区分": "調区" }, "geometry": { "type": "Point", "coordinates": [ 136.59904472, 36.58559277 ] } },
{ "type": "Feature", "properties": { "円/ｍ2": 71000, "対前年変動率%": 1.4, "基準地の地名": "金沢", "所在並びに地番": "石川県　金沢市高柳町ソ２番２５", "前面道路の道路区分": "市区町村道", "基準地周辺の土地利用の状況": "一般住宅が建ち並ぶ、周囲が開発された住宅地域", "都市計画の用途地域": "_", "防火地域": "_", "都市計画区分": "調区" }, "geometry": { "type": "Point", "coordinates": [ 136.66897083, 36.59866333 ] } },
{ "type": "Feature", "properties": { "円/ｍ2": 18700, "対前年変動率%": -1.6, "基準地の地名": "金沢", "所在並びに地番": "石川県　金沢市別所町ラ５５番５２", "前面道路の道路区分": "道路", "基準地周辺の土地利用の状況": "一般住宅が建ち並ぶほか、空地等が残る山間部の住宅地域", "都市計画の用途地域": "_", "防火地域": "_", "都市計画区分": "調区" }, "geometry": { "type": "Point", "coordinates": [ 136.67598777, 36.51050916 ] } },
{ "type": "Feature", "properties": { "円/ｍ2": 19200, "対前年変動率%": -1.5, "基準地の地名": "金沢", "所在並びに地番": "石川県　金沢市不動寺町ホ２２７番１", "前面道路の道路区分": "市区町村道", "基準地周辺の土地利用の状況": "農家住宅が多く周辺では農地も見られる既成住宅地域", "都市計画の用途地域": "_", "防火地域": "_", "都市計画区分": "調区" }, "geometry": { "type": "Point", "coordinates": [ 136.715258049999989, 36.605285 ] } },
{ "type": "Feature", "properties": { "円/ｍ2": 21600, "対前年変動率%": -0.5, "基準地の地名": "金沢", "所在並びに地番": "石川県　金沢市才田町は１０４番２", "前面道路の道路区分": "市区町村道", "基準地周辺の土地利用の状況": "一般住宅、農家住宅等のほか農地も見られる郊外の既成住宅地域", "都市計画の用途地域": "_", "防火地域": "_", "都市計画区分": "調区" }, "geometry": { "type": "Point", "coordinates": [ 136.69075805, 36.63754861 ] } },
{ "type": "Feature", "properties": { "円/ｍ2": 26900, "対前年変動率%": 0.0, "基準地の地名": "金沢", "所在並びに地番": "石川県　金沢市二日市町ヘ１８３番２", "前面道路の道路区分": "都道府県道", "基準地周辺の土地利用の状況": "一般住宅、営業所等が混在する県道沿いの住宅地域", "都市計画の用途地域": "_", "防火地域": "_", "都市計画区分": "調区" }, "geometry": { "type": "Point", "coordinates": [ 136.71236388, 36.63531111 ] } },
{ "type": "Feature", "properties": { "円/ｍ2": 32400, "対前年変動率%": 0.0, "基準地の地名": "金沢", "所在並びに地番": "石川県　金沢市御供田町ニ９１番", "前面道路の道路区分": "道路", "基準地周辺の土地利用の状況": "周辺で分譲開発された住宅が建ち並ぶ宅地化されつつある地域", "都市計画の用途地域": "準工", "防火地域": "_", "都市計画区分": "市街化" }, "geometry": { "type": "Point", "coordinates": [ 136.626311109999989, 36.61024305 ] } },
{ "type": "Feature", "properties": { "円/ｍ2": 48000, "対前年変動率%": 0.0, "基準地の地名": "金沢", "所在並びに地番": "石川県　金沢市金石下本町１１０番", "前面道路の道路区分": "市区町村道", "基準地周辺の土地利用の状況": "小売店舗が建ち並ぶ既成商業地域", "都市計画の用途地域": "近商", "防火地域": "準防", "都市計画区分": "市街化" }, "geometry": { "type": "Point", "coordinates": [ 136.59232222, 36.60241805 ] } },
{ "type": "Feature", "properties": { "円/ｍ2": 205000, "対前年変動率%": 3.5, "基準地の地名": "金沢", "所在並びに地番": "石川県　金沢市広岡２丁目４０５番", "前面道路の道路区分": "市区町村道", "基準地周辺の土地利用の状況": "事務所、営業所等のほかに駐車場が見られる商業地域", "都市計画の用途地域": "近商", "防火地域": "準防", "都市計画区分": "市街化" }, "geometry": { "type": "Point", "coordinates": [ 136.641333049999986, 36.57892222 ] } },
{ "type": "Feature", "properties": { "円/ｍ2": 98000, "対前年変動率%": 1.0, "基準地の地名": "金沢", "所在並びに地番": "石川県　金沢市石引２丁目８０８番外", "前面道路の道路区分": "都道府県道", "基準地周辺の土地利用の状況": "中低層の店舗兼住宅、営業所等が建ち並ぶ近隣型の商業地域", "都市計画の用途地域": "近商", "防火地域": "準防", "都市計画区分": "市街化" }, "geometry": { "type": "Point", "coordinates": [ 136.66893472000001, 36.55638388 ] } },
{ "type": "Feature", "properties": { "円/ｍ2": 510000, "対前年変動率%": 13.3, "基準地の地名": "金沢", "所在並びに地番": "石川県　金沢市片町２丁目６００番２外", "前面道路の道路区分": "市区町村道", "基準地周辺の土地利用の状況": "高層の飲食店ビルが建ち並ぶ繁華な商業地域", "都市計画の用途地域": "商業", "防火地域": "防火", "都市計画区分": "市街化" }, "geometry": { "type": "Point", "coordinates": [ 136.65110805, 36.560345 ] } },
{ "type": "Feature", "properties": { "円/ｍ2": 315000, "対前年変動率%": 8.6, "基準地の地名": "金沢", "所在並びに地番": "石川県　金沢市尾張町１丁目３６０番", "前面道路の道路区分": "国道", "基準地周辺の土地利用の状況": "中層店舗ビル、マンション等が建ち並ぶ中心部に近接する商業地域", "都市計画の用途地域": "商業", "防火地域": "防火", "都市計画区分": "市街化" }, "geometry": { "type": "Point", "coordinates": [ 136.66086805, 36.57116805 ] } },
{ "type": "Feature", "properties": { "円/ｍ2": 72500, "対前年変動率%": 0.0, "基準地の地名": "金沢", "所在並びに地番": "石川県　金沢市吉原町ホ６２番２外", "前面道路の道路区分": "国道", "基準地周辺の土地利用の状況": "駅に近い、店舗併用住宅等が建ち並ぶ国道沿いの商業地域", "都市計画の用途地域": "近商", "防火地域": "_", "都市計画区分": "市街化" }, "geometry": { "type": "Point", "coordinates": [ 136.69021527000001, 36.61168083 ] } },
{ "type": "Feature", "properties": { "円/ｍ2": 108000, "対前年変動率%": 3.8, "基準地の地名": "金沢", "所在並びに地番": "石川県　金沢市有松４丁目８番外", "前面道路の道路区分": "都道府県道", "基準地周辺の土地利用の状況": "小売店舗、銀行等が建ち並ぶ幹線街路沿いの路線商業地域", "都市計画の用途地域": "準住居", "防火地域": "_", "都市計画区分": "市街化" }, "geometry": { "type": "Point", "coordinates": [ 136.63901805, 36.54069916 ] } },
{ "type": "Feature", "properties": { "円/ｍ2": 79500, "対前年変動率%": 2.6, "基準地の地名": "金沢", "所在並びに地番": "石川県　金沢市玉鉾１丁目３０３番", "前面道路の道路区分": "市区町村道", "基準地周辺の土地利用の状況": "中低層の店舗、事務所の多い路線商業地域", "都市計画の用途地域": "準住居", "防火地域": "_", "都市計画区分": "市街化" }, "geometry": { "type": "Point", "coordinates": [ 136.62819638, 36.57076611 ] } },
{ "type": "Feature", "properties": { "円/ｍ2": 92500, "対前年変動率%": 3.9, "基準地の地名": "金沢", "所在並びに地番": "石川県　金沢市泉３丁目３８４番外", "前面道路の道路区分": "国道", "基準地周辺の土地利用の状況": "店舗、営業所、住宅等が建ち並ぶ国道沿いの商業地域", "都市計画の用途地域": "近商", "防火地域": "準防", "都市計画区分": "市街化" }, "geometry": { "type": "Point", "coordinates": [ 136.63808472, 36.5445625 ] } },
{ "type": "Feature", "properties": { "円/ｍ2": 315000, "対前年変動率%": 14.5, "基準地の地名": "金沢", "所在並びに地番": "石川県　金沢市木倉町２０７番外", "前面道路の道路区分": "市区町村道", "基準地周辺の土地利用の状況": "中低層の飲食ビルが建ち並ぶ中心部の商業地域", "都市計画の用途地域": "商業", "防火地域": "準防", "都市計画区分": "市街化" }, "geometry": { "type": "Point", "coordinates": [ 136.652552500000013, 36.56118027 ] } },
{ "type": "Feature", "properties": { "円/ｍ2": 935000, "対前年変動率%": 5.1, "基準地の地名": "金沢", "所在並びに地番": "石川県　金沢市香林坊２丁目６３番１", "前面道路の道路区分": "国道", "基準地周辺の土地利用の状況": "複合商業ビル等が連坦する中心部の商業地域", "都市計画の用途地域": "商業", "防火地域": "防火", "都市計画区分": "市街化" }, "geometry": { "type": "Point", "coordinates": [ 136.653323879999988, 36.56383194 ] } },
{ "type": "Feature", "properties": { "円/ｍ2": 225000, "対前年変動率%": 2.3, "基準地の地名": "金沢", "所在並びに地番": "石川県　金沢市西念４丁目１８１７番", "前面道路の道路区分": "都道府県道", "基準地周辺の土地利用の状況": "中高層の事務所ビルのほかに店舗、駐車場も見られる商業地域", "都市計画の用途地域": "商業", "防火地域": "準防", "都市計画区分": "市街化" }, "geometry": { "type": "Point", "coordinates": [ 136.63542444, 36.58662111 ] } },
{ "type": "Feature", "properties": { "円/ｍ2": 570000, "対前年変動率%": 7.5, "基準地の地名": "金沢", "所在並びに地番": "石川県　金沢市南町１８６番外", "前面道路の道路区分": "国道", "基準地周辺の土地利用の状況": "高層の銀行、保険会社ビル等が建ち並ぶ商業地域", "都市計画の用途地域": "商業", "防火地域": "防火", "都市計画区分": "市街化" }, "geometry": { "type": "Point", "coordinates": [ 136.65418, 36.56707972 ] } },
{ "type": "Feature", "properties": { "円/ｍ2": 290000, "対前年変動率%": 7.4, "基準地の地名": "金沢", "所在並びに地番": "石川県　金沢市彦三町２丁目１３６番", "前面道路の道路区分": "市区町村道", "基準地周辺の土地利用の状況": "中高層の事務所、営業所、公共施設等が建ち並ぶ商業地域", "都市計画の用途地域": "商業", "防火地域": "準防", "都市計画区分": "市街化" }, "geometry": { "type": "Point", "coordinates": [ 136.65839277, 36.57489361 ] } },
{ "type": "Feature", "properties": { "円/ｍ2": 500000, "対前年変動率%": 5.3, "基準地の地名": "金沢", "所在並びに地番": "石川県　金沢市広坂１丁目２６番外", "前面道路の道路区分": "都道府県道", "基準地周辺の土地利用の状況": "中高層店舗ビル、事務所ビル、マンションが建ち並ぶ中心部の商業地域", "都市計画の用途地域": "商業", "防火地域": "防火", "都市計画区分": "市街化" }, "geometry": { "type": "Point", "coordinates": [ 136.65518361, 36.56190916 ] } },
{ "type": "Feature", "properties": { "円/ｍ2": 495000, "対前年変動率%": 12.5, "基準地の地名": "金沢", "所在並びに地番": "石川県　金沢市東山１丁目２５８番", "前面道路の道路区分": "市区町村道", "基準地周辺の土地利用の状況": "土産店、飲食店等が多い観光街の商業地域", "都市計画の用途地域": "商業", "防火地域": "準防", "都市計画区分": "市街化" }, "geometry": { "type": "Point", "coordinates": [ 136.66575, 36.57256805 ] } },
{ "type": "Feature", "properties": { "円/ｍ2": 92000, "対前年変動率%": 3.4, "基準地の地名": "金沢", "所在並びに地番": "石川県　金沢市小坂町西５７番１", "前面道路の道路区分": "都道府県道", "基準地周辺の土地利用の状況": "低層の事務所や店舗のほかにアパート等も混在する駅に近い商業地域", "都市計画の用途地域": "近商", "防火地域": "準防", "都市計画区分": "市街化" }, "geometry": { "type": "Point", "coordinates": [ 136.67435305, 36.59095333 ] } },
{ "type": "Feature", "properties": { "円/ｍ2": 227000, "対前年変動率%": 7.6, "基準地の地名": "金沢", "所在並びに地番": "石川県　金沢市柿木畠７０番外", "前面道路の道路区分": "市区町村道", "基準地周辺の土地利用の状況": "飲食店が集まる市役所背後の商業地域", "都市計画の用途地域": "商業", "防火地域": "準防", "都市計画区分": "市街化" }, "geometry": { "type": "Point", "coordinates": [ 136.655768880000011, 36.56066111 ] } },
{ "type": "Feature", "properties": { "円/ｍ2": 92500, "対前年変動率%": 2.2, "基準地の地名": "金沢", "所在並びに地番": "石川県　金沢市入江２丁目５０番", "前面道路の道路区分": "都道府県道", "基準地周辺の土地利用の状況": "中低層の店舗、事務所等が建ち並ぶ路線商業地域", "都市計画の用途地域": "近商", "防火地域": "_", "都市計画区分": "市街化" }, "geometry": { "type": "Point", "coordinates": [ 136.62616666, 36.56484194 ] } },
{ "type": "Feature", "properties": { "円/ｍ2": 285000, "対前年変動率%": 0.0, "基準地の地名": "金沢", "所在並びに地番": "石川県　金沢市大手町１８３番外", "前面道路の道路区分": "市区町村道", "基準地周辺の土地利用の状況": "中層事務所、マンション等が混在する商業地域", "都市計画の用途地域": "商業", "防火地域": "準防", "都市計画区分": "市街化" }, "geometry": { "type": "Point", "coordinates": [ 136.66092638, 36.56938111 ] } },
{ "type": "Feature", "properties": { "円/ｍ2": 795000, "対前年変動率%": 8.9, "基準地の地名": "金沢", "所在並びに地番": "石川県　金沢市広岡１丁目１１２番外", "前面道路の道路区分": "都道府県道", "基準地周辺の土地利用の状況": "中高層の事務所、店舗が多い駅に近い商業地域", "都市計画の用途地域": "商業", "防火地域": "防火", "都市計画区分": "市街化" }, "geometry": { "type": "Point", "coordinates": [ 136.645561109999989, 36.57857527 ] } },
{ "type": "Feature", "properties": { "円/ｍ2": 57500, "対前年変動率%": 0.9, "基準地の地名": "金沢", "所在並びに地番": "石川県　金沢市問屋町１丁目２番１外", "前面道路の道路区分": "市区町村道", "基準地周辺の土地利用の状況": "繊維関係を中心とした問屋、事務所等が建ち並ぶ商業地域", "都市計画の用途地域": "商業", "防火地域": "準防", "都市計画区分": "市街化" }, "geometry": { "type": "Point", "coordinates": [ 136.637951109999989, 36.60453916 ] } },
{ "type": "Feature", "properties": { "円/ｍ2": 490000, "対前年変動率%": 6.5, "基準地の地名": "金沢", "所在並びに地番": "石川県　金沢市駅西本町１丁目１４１７番", "前面道路の道路区分": "都道府県道", "基準地周辺の土地利用の状況": "中高層の事務所ビル、銀行等が建ち並ぶ県道沿いの商業地域", "都市計画の用途地域": "商業", "防火地域": "防火", "都市計画区分": "市街化" }, "geometry": { "type": "Point", "coordinates": [ 136.64234944, 36.58083861 ] } },
{ "type": "Feature", "properties": { "円/ｍ2": 132000, "対前年変動率%": 5.6, "基準地の地名": "金沢", "所在並びに地番": "石川県　金沢市駅西本町１丁目３１１番１外", "前面道路の道路区分": "都道府県道", "基準地周辺の土地利用の状況": "中小規模の店舗、事務所が建ち並ぶ路線商業地域", "都市計画の用途地域": "近商", "防火地域": "準防", "都市計画区分": "市街化" }, "geometry": { "type": "Point", "coordinates": [ 136.63726972, 36.57926083 ] } },
{ "type": "Feature", "properties": { "円/ｍ2": 112000, "対前年変動率%": 0.9, "基準地の地名": "金沢", "所在並びに地番": "石川県　金沢市二ツ屋町１０１０番外", "前面道路の道路区分": "国道", "基準地周辺の土地利用の状況": "低層の小売店舗、飲食店舗等が見られる国道沿いの商業地域", "都市計画の用途地域": "準工", "防火地域": "_", "都市計画区分": "市街化" }, "geometry": { "type": "Point", "coordinates": [ 136.629363610000013, 36.58965361 ] } },
{ "type": "Feature", "properties": { "円/ｍ2": 80500, "対前年変動率%": 2.5, "基準地の地名": "金沢", "所在並びに地番": "石川県　金沢市三口新町４丁目１１番", "前面道路の道路区分": "市区町村道", "基準地周辺の土地利用の状況": "中小規模の店舗のほか、事務所、マンションも見られる路線商業地域", "都市計画の用途地域": "準住居", "防火地域": "_", "都市計画区分": "市街化" }, "geometry": { "type": "Point", "coordinates": [ 136.67730694, 36.54442972 ] } },
{ "type": "Feature", "properties": { "円/ｍ2": 119000, "対前年変動率%": 0.0, "基準地の地名": "金沢", "所在並びに地番": "石川県　金沢市戸水１丁目４０５番外", "前面道路の道路区分": "都道府県道", "基準地周辺の土地利用の状況": "県道沿いに飲食店舗、量販店等が建ち並ぶ路線商業地域", "都市計画の用途地域": "商業", "防火地域": "準防", "都市計画区分": "市街化" }, "geometry": { "type": "Point", "coordinates": [ 136.61979277, 36.60374277 ] } },
{ "type": "Feature", "properties": { "円/ｍ2": 510000, "対前年変動率%": 6.3, "基準地の地名": "金沢", "所在並びに地番": "石川県　金沢市此花町３５１番外", "前面道路の道路区分": "都道府県道", "基準地周辺の土地利用の状況": "ホテル、事務所、店舗等が建ち並ぶ駅前に近い商業地域", "都市計画の用途地域": "商業", "防火地域": "準防", "都市計画区分": "市街化" }, "geometry": { "type": "Point", "coordinates": [ 136.65131027000001, 36.57824472 ] } },
{ "type": "Feature", "properties": { "円/ｍ2": 1180000, "対前年変動率%": 8.3, "基準地の地名": "金沢", "所在並びに地番": "石川県　金沢市本町２丁目５７１番１外", "前面道路の道路区分": "都道府県道", "基準地周辺の土地利用の状況": "再開発ビル、高層ホテルも存する駅前商業地域", "都市計画の用途地域": "商業", "防火地域": "防火", "都市計画区分": "市街化" }, "geometry": { "type": "Point", "coordinates": [ 136.649977220000011, 36.57713222 ] } },
{ "type": "Feature", "properties": { "円/ｍ2": 61500, "対前年変動率%": 1.7, "基準地の地名": "金沢", "所在並びに地番": "石川県　金沢市森戸１丁目１５８番１", "前面道路の道路区分": "市区町村道", "基準地周辺の土地利用の状況": "事務所、倉庫、中規模住宅等が混在する国道背後の地域", "都市計画の用途地域": "準工", "防火地域": "_", "都市計画区分": "市街化" }, "geometry": { "type": "Point", "coordinates": [ 136.59984, 36.55828833 ] } },
{ "type": "Feature", "properties": { "円/ｍ2": 96000, "対前年変動率%": 2.1, "基準地の地名": "金沢", "所在並びに地番": "石川県　金沢市七ツ屋町ニ３１番１０", "前面道路の道路区分": "都道府県道", "基準地周辺の土地利用の状況": "店舗、住宅、工場等が建ち並ぶ県道沿いの商業地域", "都市計画の用途地域": "準工", "防火地域": "準防", "都市計画区分": "市街化" }, "geometry": { "type": "Point", "coordinates": [ 136.65106805, 36.58621583 ] } },
{ "type": "Feature", "properties": { "円/ｍ2": 31100, "対前年変動率%": 1.0, "基準地の地名": "金沢", "所在並びに地番": "石川県　金沢市梅田町ロ２８番２外", "前面道路の道路区分": "都道府県道", "基準地周辺の土地利用の状況": "店舗、営業所等が見られるインター近くの路線商業地域", "都市計画の用途地域": "準工", "防火地域": "_", "都市計画区分": "市街化" }, "geometry": { "type": "Point", "coordinates": [ 136.7043525, 36.62580083 ] } },
{ "type": "Feature", "properties": { "円/ｍ2": 78500, "対前年変動率%": 1.3, "基準地の地名": "金沢", "所在並びに地番": "石川県　金沢市疋田１丁目２９６番", "前面道路の道路区分": "市区町村道", "基準地周辺の土地利用の状況": "店舗、事務所等の中に空地が残る区画整理された路線商業地域", "都市計画の用途地域": "準工", "防火地域": "_", "都市計画区分": "市街化" }, "geometry": { "type": "Point", "coordinates": [ 136.67367694, 36.600425 ] } },
{ "type": "Feature", "properties": { "円/ｍ2": 68000, "対前年変動率%": 2.3, "基準地の地名": "金沢", "所在並びに地番": "石川県　金沢市金石本町ハ１０番", "前面道路の道路区分": "都道府県道", "基準地周辺の土地利用の状況": "県道沿いに店舗、事務所、営業所等が混在する路線商業地域", "都市計画の用途地域": "準工", "防火地域": "_", "都市計画区分": "市街化" }, "geometry": { "type": "Point", "coordinates": [ 136.595448049999987, 36.59993333 ] } },
{ "type": "Feature", "properties": { "円/ｍ2": 70000, "対前年変動率%": 2.9, "基準地の地名": "金沢", "所在並びに地番": "石川県　金沢市法光寺町１３８番外", "前面道路の道路区分": "国道", "基準地周辺の土地利用の状況": "自動車関連店舗、営業所等が建ち並ぶ国道沿いの路線商業地域", "都市計画の用途地域": "準工", "防火地域": "_", "都市計画区分": "市街化" }, "geometry": { "type": "Point", "coordinates": [ 136.68303694, 36.60401333 ] } },
{ "type": "Feature", "properties": { "円/ｍ2": 62000, "対前年変動率%": 3.3, "基準地の地名": "金沢", "所在並びに地番": "石川県　金沢市示野町西６２番１外", "前面道路の道路区分": "市区町村道", "基準地周辺の土地利用の状況": "営業所、工場等が建ち並ぶ工業地域", "都市計画の用途地域": "工業", "防火地域": "_", "都市計画区分": "市街化" }, "geometry": { "type": "Point", "coordinates": [ 136.608224439999987, 36.58035777 ] } },
{ "type": "Feature", "properties": { "円/ｍ2": 39500, "対前年変動率%": 3.9, "基準地の地名": "金沢", "所在並びに地番": "石川県　金沢市河原市町１０番", "前面道路の道路区分": "市区町村道", "基準地周辺の土地利用の状況": "中小規模の工場が建ち並ぶ森本インターに近接する工業団地", "都市計画の用途地域": "工業", "防火地域": "_", "都市計画区分": "市街化" }, "geometry": { "type": "Point", "coordinates": [ 136.70909, 36.60327 ] } },
{ "type": "Feature", "properties": { "円/ｍ2": 17000, "対前年変動率%": 0.0, "基準地の地名": "金沢", "所在並びに地番": "石川県　金沢市大野町４丁目ソ８番１", "前面道路の道路区分": "市区町村道", "基準地周辺の土地利用の状況": "石油基地を中心とする臨海工業地域", "都市計画の用途地域": "工専", "防火地域": "_", "都市計画区分": "市街化" }, "geometry": { "type": "Point", "coordinates": [ 136.61128305, 36.622615 ] } },
{ "type": "Feature", "properties": { "円/ｍ2": 47000, "対前年変動率%": 2.2, "基準地の地名": "金沢", "所在並びに地番": "石川県　金沢市無量寺２丁目７１番", "前面道路の道路区分": "市区町村道", "基準地周辺の土地利用の状況": "中小規模の工場、倉庫のほかアパート、農地等が見られる工業地域", "都市計画の用途地域": "工業", "防火地域": "_", "都市計画区分": "市街化" }, "geometry": { "type": "Point", "coordinates": [ 136.60943444, 36.60403083 ] } },
{ "type": "Feature", "properties": { "円/ｍ2": 17000, "対前年変動率%": -3.4, "基準地の地名": "七尾", "所在並びに地番": "石川県　七尾市栄町１５３番外", "前面道路の道路区分": "市区町村道", "基準地周辺の土地利用の状況": "一般住宅が多い集落に近く、地震による損壊建物も残る住宅地域", "都市計画の用途地域": "1中専", "防火地域": "_", "都市計画区分": "非線引" }, "geometry": { "type": "Point", "coordinates": [ 136.96041888, 37.03436027 ] } },
{ "type": "Feature", "properties": { "円/ｍ2": 15200, "対前年変動率%": -4.4, "基準地の地名": "七尾", "所在並びに地番": "石川県　七尾市矢田町壱号２１０番３", "前面道路の道路区分": "市区町村道", "基準地周辺の土地利用の状況": "一般住宅のほか、地震による損壊建物も残る郊外の住宅地域", "都市計画の用途地域": "1低専", "防火地域": "_", "都市計画区分": "非線引" }, "geometry": { "type": "Point", "coordinates": [ 136.979771660000011, 37.04266444 ] } },
{ "type": "Feature", "properties": { "円/ｍ2": 20800, "対前年変動率%": -5.5, "基準地の地名": "七尾", "所在並びに地番": "石川県　七尾市阿良町３１番３・３３番合併外", "前面道路の道路区分": "市区町村道", "基準地周辺の土地利用の状況": "中小規模住宅のほか、地震による倒壊建物が残る中心部の住宅地域", "都市計画の用途地域": "近商", "防火地域": "準防", "都市計画区分": "非線引" }, "geometry": { "type": "Point", "coordinates": [ 136.962756109999987, 37.04768194 ] } },
{ "type": "Feature", "properties": { "円/ｍ2": 17200, "対前年変動率%": -1.7, "基準地の地名": "七尾", "所在並びに地番": "石川県　七尾市石崎町香島２丁目１００番", "前面道路の道路区分": "市区町村道", "基準地周辺の土地利用の状況": "地震の影響が残る区画整理済みの住宅地域", "都市計画の用途地域": "1低専", "防火地域": "_", "都市計画区分": "非線引" }, "geometry": { "type": "Point", "coordinates": [ 136.925126940000013, 37.08186 ] } },
{ "type": "Feature", "properties": { "円/ｍ2": 5300, "対前年変動率%": -2.8, "基準地の地名": "七尾", "所在並びに地番": "石川県　七尾市舟尾町リ７７番１", "前面道路の道路区分": "市区町村道", "基準地周辺の土地利用の状況": "地震の影響が残る一般住宅、農家住宅等が混在する既成住宅地域", "都市計画の用途地域": "_", "防火地域": "_", "都市計画区分": "都計外" }, "geometry": { "type": "Point", "coordinates": [ 136.90236388, 37.06560416 ] } },
{ "type": "Feature", "properties": { "円/ｍ2": 5100, "対前年変動率%": -1.9, "基準地の地名": "七尾", "所在並びに地番": "石川県　七尾市大津町壱七５８番３", "前面道路の道路区分": "都道府県道", "基準地周辺の土地利用の状況": "一般住宅、農家住宅のほか店舗も散見される県道沿いの住宅地域", "都市計画の用途地域": "_", "防火地域": "_", "都市計画区分": "都計外" }, "geometry": { "type": "Point", "coordinates": [ 136.85288444, 37.06829527 ] } },
{ "type": "Feature", "properties": { "円/ｍ2": 4750, "対前年変動率%": -2.1, "基準地の地名": "七尾", "所在並びに地番": "石川県　七尾市能登島半浦町壱五２３番１", "前面道路の道路区分": "都道府県道", "基準地周辺の土地利用の状況": "地震後建物解体が進み空地が見られる海岸沿いの住宅地域", "都市計画の用途地域": "_", "防火地域": "_", "都市計画区分": "都計外" }, "geometry": { "type": "Point", "coordinates": [ 136.93536444, 37.11942527 ] } },
{ "type": "Feature", "properties": { "円/ｍ2": 27500, "対前年変動率%": -2.8, "基準地の地名": "七尾", "所在並びに地番": "石川県　七尾市小丸山台２丁目９４番", "前面道路の道路区分": "市区町村道", "基準地周辺の土地利用の状況": "中規模一般住宅が多い区画整然とした住宅地域", "都市計画の用途地域": "1低専", "防火地域": "_", "都市計画区分": "非線引" }, "geometry": { "type": "Point", "coordinates": [ 136.95257722, 37.04545083 ] } },
{ "type": "Feature", "properties": { "円/ｍ2": 7800, "対前年変動率%": 0.0, "基準地の地名": "七尾", "所在並びに地番": "石川県　七尾市中島町浜田耕１５２番３", "前面道路の道路区分": "市区町村道", "基準地周辺の土地利用の状況": "地震の影響が残る一般住宅が多い区画整然とした住宅地域", "都市計画の用途地域": "_", "防火地域": "_", "都市計画区分": "都計外" }, "geometry": { "type": "Point", "coordinates": [ 136.84796527, 37.1176025 ] } },
{ "type": "Feature", "properties": { "円/ｍ2": 53000, "対前年変動率%": -3.3, "基準地の地名": "七尾", "所在並びに地番": "石川県　七尾市神明町ロ２番１０外", "前面道路の道路区分": "市区町村道", "基準地周辺の土地利用の状況": "ビル、店舗、営業所等が建ち並ぶ駅前の中心的商業地域", "都市計画の用途地域": "商業", "防火地域": "準防", "都市計画区分": "非線引" }, "geometry": { "type": "Point", "coordinates": [ 136.96539166, 37.04264861 ] } },
{ "type": "Feature", "properties": { "円/ｍ2": 31800, "対前年変動率%": -1.2, "基準地の地名": "七尾", "所在並びに地番": "石川県　七尾市本府中町ル３５番３", "前面道路の道路区分": "国道", "基準地周辺の土地利用の状況": "低層店舗等のほか、地震による損壊建物も僅かに残る路線商業地域", "都市計画の用途地域": "準工", "防火地域": "_", "都市計画区分": "非線引" }, "geometry": { "type": "Point", "coordinates": [ 136.96817388, 37.03474305 ] } },
{ "type": "Feature", "properties": { "円/ｍ2": 7750, "対前年変動率%": -3.1, "基準地の地名": "七尾", "所在並びに地番": "石川県　七尾市田鶴浜町ワ４番１", "前面道路の道路区分": "市区町村道", "基準地周辺の土地利用の状況": "地震後建物解体が進み空地が多い既成商業地域", "都市計画の用途地域": "_", "防火地域": "_", "都市計画区分": "都計外" }, "geometry": { "type": "Point", "coordinates": [ 136.89030333, 37.06493833 ] } },
{ "type": "Feature", "properties": { "円/ｍ2": 6850, "対前年変動率%": -2.1, "基準地の地名": "七尾", "所在並びに地番": "石川県　七尾市能登島向田町に１２番１", "前面道路の道路区分": "都道府県道", "基準地周辺の土地利用の状況": "地震の影響が残るほか空地が見られる県道沿いの商業地域", "都市計画の用途地域": "_", "防火地域": "_", "都市計画区分": "都計外" }, "geometry": { "type": "Point", "coordinates": [ 136.99871944, 37.13156527 ] } },
{ "type": "Feature", "properties": { "円/ｍ2": 8000, "対前年変動率%": 0.0, "基準地の地名": "七尾", "所在並びに地番": "石川県　七尾市中島町中島八７２番１外", "前面道路の道路区分": "市区町村道", "基準地周辺の土地利用の状況": "地震後建物解体が進み空地が見られる既成商業地域", "都市計画の用途地域": "_", "防火地域": "_", "都市計画区分": "都計外" }, "geometry": { "type": "Point", "coordinates": [ 136.849553609999987, 37.12003 ] } },
{ "type": "Feature", "properties": { "円/ｍ2": 8100, "対前年変動率%": -3.6, "基準地の地名": "七尾", "所在並びに地番": "石川県　七尾市佐味町ハ１５番１", "前面道路の道路区分": "市区町村道", "基準地周辺の土地利用の状況": "工場、配送センター、資材置場等が見られる工業地域", "都市計画の用途地域": "準工", "防火地域": "_", "都市計画区分": "非線引" }, "geometry": { "type": "Point", "coordinates": [ 136.995418879999988, 37.04944388 ] } },
{ "type": "Feature", "properties": { "円/ｍ2": 22000, "対前年変動率%": 0.0, "基準地の地名": "小松", "所在並びに地番": "石川県　小松市安宅町レ５５番１１０", "前面道路の道路区分": "道路", "基準地周辺の土地利用の状況": "中規模一般住宅が多い郊外の住宅地域", "都市計画の用途地域": "1住居", "防火地域": "_", "都市計画区分": "市街化" }, "geometry": { "type": "Point", "coordinates": [ 136.419945, 36.41706611 ] } },
{ "type": "Feature", "properties": { "円/ｍ2": 45500, "対前年変動率%": 5.8, "基準地の地名": "小松", "所在並びに地番": "石川県　小松市桜木町６０番", "前面道路の道路区分": "市区町村道", "基準地周辺の土地利用の状況": "一般住宅等が建ち並ぶ区画整然とした住宅地域", "都市計画の用途地域": "2住居", "防火地域": "_", "都市計画区分": "市街化" }, "geometry": { "type": "Point", "coordinates": [ 136.43955194, 36.40593638 ] } },
{ "type": "Feature", "properties": { "円/ｍ2": 20300, "対前年変動率%": -1.0, "基準地の地名": "小松", "所在並びに地番": "石川県　小松市四丁町に５５番", "前面道路の道路区分": "市区町村道", "基準地周辺の土地利用の状況": "中規模一般住宅が建ち並ぶ郊外の住宅地域", "都市計画の用途地域": "1低専", "防火地域": "_", "都市計画区分": "市街化" }, "geometry": { "type": "Point", "coordinates": [ 136.412238050000013, 36.35397027 ] } },
{ "type": "Feature", "properties": { "円/ｍ2": 36500, "対前年変動率%": 5.8, "基準地の地名": "小松", "所在並びに地番": "石川県　小松市吉竹町か６９番", "前面道路の道路区分": "市区町村道", "基準地周辺の土地利用の状況": "中規模一般住宅の中に空地も見られる住宅地域", "都市計画の用途地域": "1住居", "防火地域": "_", "都市計画区分": "市街化" }, "geometry": { "type": "Point", "coordinates": [ 136.47672861, 36.39127055 ] } },
{ "type": "Feature", "properties": { "円/ｍ2": 54000, "対前年変動率%": 3.8, "基準地の地名": "小松", "所在並びに地番": "石川県　小松市沖町レ５５番", "前面道路の道路区分": "市区町村道", "基準地周辺の土地利用の状況": "一般住宅と低層の共同住宅が混在する近郊の住宅地域", "都市計画の用途地域": "1住居", "防火地域": "_", "都市計画区分": "市街化" }, "geometry": { "type": "Point", "coordinates": [ 136.46435972, 36.39734027 ] } },
{ "type": "Feature", "properties": { "円/ｍ2": 20600, "対前年変動率%": 0.0, "基準地の地名": "小松", "所在並びに地番": "石川県　小松市国府台１丁目１３１番", "前面道路の道路区分": "市区町村道", "基準地周辺の土地利用の状況": "大規模な高台の区画整理された住宅地域", "都市計画の用途地域": "1低専", "防火地域": "_", "都市計画区分": "市街化" }, "geometry": { "type": "Point", "coordinates": [ 136.5181825, 36.41679611 ] } },
{ "type": "Feature", "properties": { "円/ｍ2": 20600, "対前年変動率%": -1.0, "基準地の地名": "小松", "所在並びに地番": "石川県　小松市一針町巳２３９番３外", "前面道路の道路区分": "市区町村道", "基準地周辺の土地利用の状況": "住宅と小規模工場等が混在する既成住宅地域", "都市計画の用途地域": "1住居", "防火地域": "_", "都市計画区分": "市街化" }, "geometry": { "type": "Point", "coordinates": [ 136.47886277, 36.4165325 ] } },
{ "type": "Feature", "properties": { "円/ｍ2": 22900, "対前年変動率%": -0.9, "基準地の地名": "小松", "所在並びに地番": "石川県　小松市西軽海町２丁目３４番", "前面道路の道路区分": "市区町村道", "基準地周辺の土地利用の状況": "一般住宅が建ち並ぶ区画整然とした住宅地域", "都市計画の用途地域": "1低専", "防火地域": "_", "都市計画区分": "市街化" }, "geometry": { "type": "Point", "coordinates": [ 136.50322472, 36.39776055 ] } },
{ "type": "Feature", "properties": { "円/ｍ2": 46000, "対前年変動率%": 2.2, "基準地の地名": "小松", "所在並びに地番": "石川県　小松市旭町３９番外", "前面道路の道路区分": "市区町村道", "基準地周辺の土地利用の状況": "一般住宅等が建ち並ぶ中心部寄りの既成住宅地域", "都市計画の用途地域": "2住居", "防火地域": "準防", "都市計画区分": "市街化" }, "geometry": { "type": "Point", "coordinates": [ 136.4490425, 36.39595944 ] } },
{ "type": "Feature", "properties": { "円/ｍ2": 30700, "対前年変動率%": 1.3, "基準地の地名": "小松", "所在並びに地番": "石川県　小松市今江町６丁目６２０番", "前面道路の道路区分": "市区町村道", "基準地周辺の土地利用の状況": "一般住宅の中に空地等が見られる閑静な住宅地域", "都市計画の用途地域": "1住居", "防火地域": "_", "都市計画区分": "市街化" }, "geometry": { "type": "Point", "coordinates": [ 136.436445, 36.37718805 ] } },
{ "type": "Feature", "properties": { "円/ｍ2": 48500, "対前年変動率%": 4.1, "基準地の地名": "小松", "所在並びに地番": "石川県　小松市殿町２丁目３２番", "前面道路の道路区分": "市区町村道", "基準地周辺の土地利用の状況": "中小規模住宅等が建ち並ぶ中心部の既成住宅地域", "都市計画の用途地域": "2住居", "防火地域": "準防", "都市計画区分": "市街化" }, "geometry": { "type": "Point", "coordinates": [ 136.44986, 36.40991 ] } },
{ "type": "Feature", "properties": { "円/ｍ2": 30500, "対前年変動率%": 0.0, "基準地の地名": "小松", "所在並びに地番": "石川県　小松市須天町２丁目１０１番１外", "前面道路の道路区分": "都道府県道", "基準地周辺の土地利用の状況": "一般住宅のほか営業所や店舗等も見られる県道沿いの住宅地域", "都市計画の用途地域": "準工", "防火地域": "_", "都市計画区分": "市街化" }, "geometry": { "type": "Point", "coordinates": [ 136.44032194, 36.38606027 ] } },
{ "type": "Feature", "properties": { "円/ｍ2": 14300, "対前年変動率%": -1.4, "基準地の地名": "小松", "所在並びに地番": "石川県　小松市河田町リ５８番", "前面道路の道路区分": "都道府県道", "基準地周辺の土地利用の状況": "一般住宅、農家住宅等が見られる県道沿いの住宅地域", "都市計画の用途地域": "_", "防火地域": "_", "都市計画区分": "調区" }, "geometry": { "type": "Point", "coordinates": [ 136.51021444, 36.41791972 ] } },
{ "type": "Feature", "properties": { "円/ｍ2": 15700, "対前年変動率%": 0.0, "基準地の地名": "小松", "所在並びに地番": "石川県　小松市木場台７４番", "前面道路の道路区分": "市区町村道", "基準地周辺の土地利用の状況": "中規模一般住宅が建ち並ぶ区画整然とした住宅地域", "都市計画の用途地域": "_", "防火地域": "_", "都市計画区分": "調区" }, "geometry": { "type": "Point", "coordinates": [ 136.44762111, 36.350395 ] } },
{ "type": "Feature", "properties": { "円/ｍ2": 86000, "対前年変動率%": 2.4, "基準地の地名": "小松", "所在並びに地番": "石川県　小松市園町ハ１８２番１外", "前面道路の道路区分": "国道", "基準地周辺の土地利用の状況": "店舗、事務所等が連坦する幹線道路沿いの商業地域", "都市計画の用途地域": "準工", "防火地域": "_", "都市計画区分": "市街化" }, "geometry": { "type": "Point", "coordinates": [ 136.45980888, 36.40469694 ] } },
{ "type": "Feature", "properties": { "円/ｍ2": 110000, "対前年変動率%": 7.8, "基準地の地名": "小松", "所在並びに地番": "石川県　小松市日の出町１丁目１４７番外", "前面道路の道路区分": "市区町村道", "基準地周辺の土地利用の状況": "低層店舗、事務所の多い駅に近接した商業地域", "都市計画の用途地域": "商業", "防火地域": "準防", "都市計画区分": "市街化" }, "geometry": { "type": "Point", "coordinates": [ 136.453808329999987, 36.40058333 ] } },
{ "type": "Feature", "properties": { "円/ｍ2": 31700, "対前年変動率%": 0.0, "基準地の地名": "小松", "所在並びに地番": "石川県　小松市島町ル１１７番６外", "前面道路の道路区分": "都道府県道", "基準地周辺の土地利用の状況": "小売店舗、事業所のほかに住宅等が混在する県道沿いの既成商業地域", "都市計画の用途地域": "近商", "防火地域": "_", "都市計画区分": "市街化" }, "geometry": { "type": "Point", "coordinates": [ 136.42777611, 36.35301 ] } },
{ "type": "Feature", "properties": { "円/ｍ2": 60500, "対前年変動率%": 7.1, "基準地の地名": "小松", "所在並びに地番": "石川県　小松市龍助町３２番", "前面道路の道路区分": "市区町村道", "基準地周辺の土地利用の状況": "銀行、店舗兼住宅等が建ち並ぶ既成商業地域", "都市計画の用途地域": "近商", "防火地域": "準防", "都市計画区分": "市街化" }, "geometry": { "type": "Point", "coordinates": [ 136.44853333, 36.40250166 ] } },
{ "type": "Feature", "properties": { "円/ｍ2": 24900, "対前年変動率%": -2.0, "基準地の地名": "小松", "所在並びに地番": "石川県　小松市軽海町ツ９０番１外", "前面道路の道路区分": "国道", "基準地周辺の土地利用の状況": "低層の店舗、事務所が見られる国道沿いの路線商業地域", "都市計画の用途地域": "準住居", "防火地域": "_", "都市計画区分": "市街化" }, "geometry": { "type": "Point", "coordinates": [ 136.49899083, 36.40030472 ] } },
{ "type": "Feature", "properties": { "円/ｍ2": 89500, "対前年変動率%": 0.6, "基準地の地名": "小松", "所在並びに地番": "石川県　小松市沖町５９５番", "前面道路の道路区分": "市区町村道", "基準地周辺の土地利用の状況": "低層の小売店舗、飲食店等が建ち並ぶ新興商業地域", "都市計画の用途地域": "準住居", "防火地域": "_", "都市計画区分": "市街化" }, "geometry": { "type": "Point", "coordinates": [ 136.46829111, 36.39665694 ] } },
{ "type": "Feature", "properties": { "円/ｍ2": 19200, "対前年変動率%": 1.1, "基準地の地名": "小松", "所在並びに地番": "石川県　小松市串町工業団地１番２", "前面道路の道路区分": "市区町村道", "基準地周辺の土地利用の状況": "中規模工場が建ち並ぶ内陸型の工業団地", "都市計画の用途地域": "工業", "防火地域": "_", "都市計画区分": "市街化" }, "geometry": { "type": "Point", "coordinates": [ 136.415895, 36.36383361 ] } },
{ "type": "Feature", "properties": { "円/ｍ2": 22600, "対前年変動率%": 0.0, "基準地の地名": "小松", "所在並びに地番": "石川県　小松市長崎町４丁目７８番", "前面道路の道路区分": "市区町村道", "基準地周辺の土地利用の状況": "工場、事務所が見られる小松インターに近い工業地域", "都市計画の用途地域": "準工", "防火地域": "_", "都市計画区分": "市街化" }, "geometry": { "type": "Point", "coordinates": [ 136.43143, 36.42066611 ] } },
{ "type": "Feature", "properties": { "円/ｍ2": 13700, "対前年変動率%": -5.5, "基準地の地名": "輪島", "所在並びに地番": "石川県　輪島市二勢町２１番", "前面道路の道路区分": "市区町村道", "基準地周辺の土地利用の状況": "地震により損壊した建物及び空地が見られる住宅団地", "都市計画の用途地域": "1住居", "防火地域": "_", "都市計画区分": "非線引" }, "geometry": { "type": "Point", "coordinates": [ 136.896382499999987, 37.38730666 ] } },
{ "type": "Feature", "properties": { "円/ｍ2": 24000, "対前年変動率%": -5.5, "基準地の地名": "輪島", "所在並びに地番": "石川県　輪島市河井町壱五部９０番５６外", "前面道路の道路区分": "市区町村道", "基準地周辺の土地利用の状況": "地震被害で建物を解体し、空地が多く見られる市中心部に近い住宅地域", "都市計画の用途地域": "2住居", "防火地域": "_", "都市計画区分": "非線引" }, "geometry": { "type": "Point", "coordinates": [ 136.90660666, 37.39089555 ] } },
{ "type": "Feature", "properties": { "円/ｍ2": 21000, "対前年変動率%": -5.8, "基準地の地名": "輪島", "所在並びに地番": "石川県　輪島市河井町六部８７番１４", "前面道路の道路区分": "市区町村道", "基準地周辺の土地利用の状況": "地震により損壊した建物が見られる海岸に近い住宅地域", "都市計画の用途地域": "準住居", "防火地域": "_", "都市計画区分": "非線引" }, "geometry": { "type": "Point", "coordinates": [ 136.91234305, 37.39366861 ] } },
{ "type": "Feature", "properties": { "円/ｍ2": 6250, "対前年変動率%": -4.6, "基準地の地名": "輪島", "所在並びに地番": "石川県　輪島市門前町舘イ１番１外", "前面道路の道路区分": "市区町村道", "基準地周辺の土地利用の状況": "一般住宅のほか建物解体後の空地が多い住宅地域", "都市計画の用途地域": "_", "防火地域": "_", "都市計画区分": "都計外" }, "geometry": { "type": "Point", "coordinates": [ 136.76503944000001, 37.2873125 ] } },
{ "type": "Feature", "properties": { "円/ｍ2": 3400, "対前年変動率%": 0.0, "基準地の地名": "輪島", "所在並びに地番": "石川県　輪島市門前町剱地レ１２６番６", "前面道路の道路区分": "市区町村道", "基準地周辺の土地利用の状況": "一般住宅の多い海岸に近い既成住宅地域", "都市計画の用途地域": "_", "防火地域": "_", "都市計画区分": "都計外" }, "geometry": { "type": "Point", "coordinates": [ 136.70602638, 37.23176 ] } },
{ "type": "Feature", "properties": { "円/ｍ2": 22000, "対前年変動率%": 0.0, "基準地の地名": "輪島", "所在並びに地番": "石川県　輪島市新橋通八字２番３１", "前面道路の道路区分": "市区町村道", "基準地周辺の土地利用の状況": "地震により損壊した建物が多く、空地が多く見られる近隣商業地域", "都市計画の用途地域": "準住居", "防火地域": "_", "都市計画区分": "非線引" }, "geometry": { "type": "Point", "coordinates": [ 136.89806138, 37.39435083 ] } },
{ "type": "Feature", "properties": { "円/ｍ2": 10400, "対前年変動率%": -3.7, "基準地の地名": "輪島", "所在並びに地番": "石川県　輪島市門前町清水壱２番", "前面道路の道路区分": "市区町村道", "基準地周辺の土地利用の状況": "建物解体後の空地が多く残る古くからの商業地域", "都市計画の用途地域": "_", "防火地域": "_", "都市計画区分": "都計外" }, "geometry": { "type": "Point", "coordinates": [ 136.768446110000014, 37.28914972 ] } },
{ "type": "Feature", "properties": { "円/ｍ2": 14000, "対前年変動率%": -5.4, "基準地の地名": "輪島", "所在並びに地番": "石川県　輪島市山岸町ろ３８番外", "前面道路の道路区分": "市区町村道", "基準地周辺の土地利用の状況": "地震により損壊した建物が見られる住宅、ＬＰガス施設が混在する地域", "都市計画の用途地域": "準工", "防火地域": "_", "都市計画区分": "非線引" }, "geometry": { "type": "Point", "coordinates": [ 136.90784305, 37.38123916 ] } },
{ "type": "Feature", "properties": { "円/ｍ2": 4950, "対前年変動率%": -4.8, "基準地の地名": "珠洲", "所在並びに地番": "石川県　珠洲市正院町正院弐弐部４５番１", "前面道路の道路区分": "市区町村道", "基準地周辺の土地利用の状況": "地震後の建物解体により周辺に空地が多く見られる既成住宅地域", "都市計画の用途地域": "_", "防火地域": "_", "都市計画区分": "非線引" }, "geometry": { "type": "Point", "coordinates": [ 137.2924075, 37.44452472 ] } },
{ "type": "Feature", "properties": { "円/ｍ2": 6400, "対前年変動率%": -4.5, "基準地の地名": "珠洲", "所在並びに地番": "石川県　珠洲市宝立町金峰寺八字１２番１", "前面道路の道路区分": "市区町村道", "基準地周辺の土地利用の状況": "住宅、事務所等が混在し、地震後の建物解体により空地の多い住宅地域", "都市計画の用途地域": "_", "防火地域": "_", "都市計画区分": "非線引" }, "geometry": { "type": "Point", "coordinates": [ 137.235918880000014, 37.40240277 ] } },
{ "type": "Feature", "properties": { "円/ｍ2": 3750, "対前年変動率%": -3.8, "基準地の地名": "珠洲", "所在並びに地番": "石川県　珠洲市蛸島町タ部１５１番３", "前面道路の道路区分": "都道府県道", "基準地周辺の土地利用の状況": "一般住宅等が見られ、周辺に建物解体による空地も多い住宅地域", "都市計画の用途地域": "_", "防火地域": "_", "都市計画区分": "非線引" }, "geometry": { "type": "Point", "coordinates": [ 137.31751583, 37.44081861 ] } },
{ "type": "Feature", "properties": { "円/ｍ2": 12100, "対前年変動率%": -4.7, "基準地の地名": "珠洲", "所在並びに地番": "石川県　珠洲市飯田町壱壱部６７番５", "前面道路の道路区分": "国道", "基準地周辺の土地利用の状況": "店舗、事務所のほか建物解体後の空地も見られる国道沿いの商業地域", "都市計画の用途地域": "_", "防火地域": "_", "都市計画区分": "非線引" }, "geometry": { "type": "Point", "coordinates": [ 137.26500722, 37.43968277 ] } },
{ "type": "Feature", "properties": { "円/ｍ2": 17000, "対前年変動率%": -3.4, "基準地の地名": "加賀", "所在並びに地番": "石川県　加賀市湖城町２丁目２４６番", "前面道路の道路区分": "市区町村道", "基準地周辺の土地利用の状況": "中規模一般住宅が建ち並ぶ丘陵地の郊外の住宅地域", "都市計画の用途地域": "1中専", "防火地域": "_", "都市計画区分": "非線引" }, "geometry": { "type": "Point", "coordinates": [ 136.36048527, 36.33723694 ] } },
{ "type": "Feature", "properties": { "円/ｍ2": 17100, "対前年変動率%": -2.8, "基準地の地名": "加賀", "所在並びに地番": "石川県　加賀市潮津町チ９５番", "前面道路の道路区分": "市区町村道", "基準地周辺の土地利用の状況": "一般住宅、アパートのほかに空地が見られる温泉街に近い住宅地域", "都市計画の用途地域": "1住居", "防火地域": "_", "都市計画区分": "非線引" }, "geometry": { "type": "Point", "coordinates": [ 136.36173944, 36.34756833 ] } },
{ "type": "Feature", "properties": { "円/ｍ2": 15400, "対前年変動率%": -2.5, "基準地の地名": "加賀", "所在並びに地番": "石川県　加賀市動橋町ロ１５３番", "前面道路の道路区分": "市区町村道", "基準地周辺の土地利用の状況": "中規模の一般住宅が多い既成住宅地域", "都市計画の用途地域": "1住居", "防火地域": "_", "都市計画区分": "非線引" }, "geometry": { "type": "Point", "coordinates": [ 136.38556583, 36.32877194 ] } },
{ "type": "Feature", "properties": { "円/ｍ2": 15700, "対前年変動率%": -1.3, "基準地の地名": "加賀", "所在並びに地番": "石川県　加賀市山代温泉ル３９番４", "前面道路の道路区分": "市区町村道", "基準地周辺の土地利用の状況": "一般住宅のほかにアパートが混在する閑静な住宅地域", "都市計画の用途地域": "1住居", "防火地域": "_", "都市計画区分": "非線引" }, "geometry": { "type": "Point", "coordinates": [ 136.35966138, 36.28495361 ] } },
{ "type": "Feature", "properties": { "円/ｍ2": 45500, "対前年変動率%": 0.0, "基準地の地名": "加賀", "所在並びに地番": "石川県　加賀市小菅波町２丁目６６番", "前面道路の道路区分": "市区町村道", "基準地周辺の土地利用の状況": "一般住宅の中に空地等も見られる区画整理済の住宅地域", "都市計画の用途地域": "1中専", "防火地域": "_", "都市計画区分": "非線引" }, "geometry": { "type": "Point", "coordinates": [ 136.34971583, 36.31710833 ] } },
{ "type": "Feature", "properties": { "円/ｍ2": 22900, "対前年変動率%": -2.6, "基準地の地名": "加賀", "所在並びに地番": "石川県　加賀市山中温泉河鹿町ホ７４番２", "前面道路の道路区分": "市区町村道", "基準地周辺の土地利用の状況": "一般住宅のほかにアパート、ホテル等が混在する既成住宅地域", "都市計画の用途地域": "近商", "防火地域": "_", "都市計画区分": "非線引" }, "geometry": { "type": "Point", "coordinates": [ 136.37449583, 36.24479055 ] } },
{ "type": "Feature", "properties": { "円/ｍ2": 12000, "対前年変動率%": -1.6, "基準地の地名": "加賀", "所在並びに地番": "石川県　加賀市山中温泉長谷田町ロ３４８番", "前面道路の道路区分": "市区町村道", "基準地周辺の土地利用の状況": "一般住宅の中に空地等が見られる区画整理済の住宅地域", "都市計画の用途地域": "1住居", "防火地域": "_", "都市計画区分": "非線引" }, "geometry": { "type": "Point", "coordinates": [ 136.35866805, 36.26800083 ] } },
{ "type": "Feature", "properties": { "円/ｍ2": 16800, "対前年変動率%": -1.2, "基準地の地名": "加賀", "所在並びに地番": "石川県　加賀市大聖寺上福田町ヌ１６番３外", "前面道路の道路区分": "市区町村道", "基準地周辺の土地利用の状況": "中規模一般住宅が多い市街地周辺の住宅地域", "都市計画の用途地域": "1住居", "防火地域": "_", "都市計画区分": "非線引" }, "geometry": { "type": "Point", "coordinates": [ 136.31318166, 36.31352722 ] } },
{ "type": "Feature", "properties": { "円/ｍ2": 36500, "対前年変動率%": -1.4, "基準地の地名": "加賀", "所在並びに地番": "石川県　加賀市大聖寺南町ホ１番９外", "前面道路の道路区分": "都道府県道", "基準地周辺の土地利用の状況": "店舗、事務所、営業所等が建ち並ぶ駅前商業地域", "都市計画の用途地域": "商業", "防火地域": "_", "都市計画区分": "非線引" }, "geometry": { "type": "Point", "coordinates": [ 136.313902219999989, 36.30167388 ] } },
{ "type": "Feature", "properties": { "円/ｍ2": 74000, "対前年変動率%": 3.5, "基準地の地名": "加賀", "所在並びに地番": "石川県　加賀市作見町リ１９番３", "前面道路の道路区分": "都道府県道", "基準地周辺の土地利用の状況": "大中規模店舗等が建ち並ぶ幹線道路沿いの駅前商業地域", "都市計画の用途地域": "商業", "防火地域": "_", "都市計画区分": "非線引" }, "geometry": { "type": "Point", "coordinates": [ 136.35221611, 36.31861111 ] } },
{ "type": "Feature", "properties": { "円/ｍ2": 39000, "対前年変動率%": -0.5, "基準地の地名": "加賀", "所在並びに地番": "石川県　加賀市山中温泉本町１丁目ヤ２６番", "前面道路の道路区分": "都道府県道", "基準地周辺の土地利用の状況": "店舗、営業所等が連坦する温泉街の商業地域", "都市計画の用途地域": "近商", "防火地域": "_", "都市計画区分": "非線引" }, "geometry": { "type": "Point", "coordinates": [ 136.37436944, 36.24951166 ] } },
{ "type": "Feature", "properties": { "円/ｍ2": 6600, "対前年変動率%": 0.0, "基準地の地名": "加賀", "所在並びに地番": "石川県　加賀市宇谷町タ１番１８外", "前面道路の道路区分": "市区町村道", "基準地周辺の土地利用の状況": "中規模工場が建ち並ぶ山間部の工業団地", "都市計画の用途地域": "_", "防火地域": "_", "都市計画区分": "非線引" }, "geometry": { "type": "Point", "coordinates": [ 136.40240888, 36.299045 ] } },
{ "type": "Feature", "properties": { "円/ｍ2": 18500, "対前年変動率%": -3.1, "基準地の地名": "羽咋", "所在並びに地番": "石川県　羽咋市東川原町苗代４５番１", "前面道路の道路区分": "市区町村道", "基準地周辺の土地利用の状況": "中規模一般住宅が多い駅に近い住宅地域", "都市計画の用途地域": "2住居", "防火地域": "_", "都市計画区分": "非線引" }, "geometry": { "type": "Point", "coordinates": [ 136.78565833, 36.89490083 ] } },
{ "type": "Feature", "properties": { "円/ｍ2": 20900, "対前年変動率%": -4.1, "基準地の地名": "羽咋", "所在並びに地番": "石川県　羽咋市若草町６８番", "前面道路の道路区分": "市区町村道", "基準地周辺の土地利用の状況": "中規模一般住宅が多い郊外の閑静な住宅地域", "都市計画の用途地域": "_", "防火地域": "_", "都市計画区分": "非線引" }, "geometry": { "type": "Point", "coordinates": [ 136.79850611, 36.89635972 ] } },
{ "type": "Feature", "properties": { "円/ｍ2": 12900, "対前年変動率%": -4.4, "基準地の地名": "羽咋", "所在並びに地番": "石川県　羽咋市千里浜町ロ８１番３", "前面道路の道路区分": "市区町村道", "基準地周辺の土地利用の状況": "中規模一般住宅が建ち並ぶ住宅地域", "都市計画の用途地域": "1住居", "防火地域": "_", "都市計画区分": "非線引" }, "geometry": { "type": "Point", "coordinates": [ 136.77379055, 36.893745 ] } },
{ "type": "Feature", "properties": { "円/ｍ2": 24500, "対前年変動率%": 2.1, "基準地の地名": "羽咋", "所在並びに地番": "石川県　羽咋市川原町テ４８番１", "前面道路の道路区分": "都道府県道", "基準地周辺の土地利用の状況": "飲食店、医院等が見られる駅に近い商業地域", "都市計画の用途地域": "近商", "防火地域": "_", "都市計画区分": "非線引" }, "geometry": { "type": "Point", "coordinates": [ 136.782067500000011, 36.89550861 ] } },
{ "type": "Feature", "properties": { "円/ｍ2": 29600, "対前年変動率%": -3.0, "基準地の地名": "羽咋", "所在並びに地番": "石川県　羽咋市石野町ニ４２番１外", "前面道路の道路区分": "市区町村道", "基準地周辺の土地利用の状況": "低層の店舗等が建ち並ぶ路線商業地域", "都市計画の用途地域": "_", "防火地域": "_", "都市計画区分": "非線引" }, "geometry": { "type": "Point", "coordinates": [ 136.80048111, 36.89442527 ] } },
{ "type": "Feature", "properties": { "円/ｍ2": 5800, "対前年変動率%": -1.7, "基準地の地名": "羽咋", "所在並びに地番": "石川県　羽咋市寺家町タ１番９外", "前面道路の道路区分": "市区町村道", "基準地周辺の土地利用の状況": "工場、営業所等が見られるインターチェンジに近い工業地域", "都市計画の用途地域": "_", "防火地域": "_", "都市計画区分": "非線引" }, "geometry": { "type": "Point", "coordinates": [ 136.772262219999988, 36.91668916 ] } },
{ "type": "Feature", "properties": { "円/ｍ2": 9700, "対前年変動率%": -2.0, "基準地の地名": "かほく", "所在並びに地番": "石川県　かほく市内高松未３８番", "前面道路の道路区分": "市区町村道", "基準地周辺の土地利用の状況": "従来からの中規模一般住宅のほか空地も見られる住宅地域", "都市計画の用途地域": "1住居", "防火地域": "_", "都市計画区分": "非線引" }, "geometry": { "type": "Point", "coordinates": [ 136.73163305, 36.76802722 ] } },
{ "type": "Feature", "properties": { "円/ｍ2": 18500, "対前年変動率%": 2.2, "基準地の地名": "かほく", "所在並びに地番": "石川県　かほく市高松キ４７番３１", "前面道路の道路区分": "市区町村道", "基準地周辺の土地利用の状況": "中規模一般住宅が多い砂丘地の住宅地域", "都市計画の用途地域": "1住居", "防火地域": "_", "都市計画区分": "非線引" }, "geometry": { "type": "Point", "coordinates": [ 136.711882769999988, 36.75557638 ] } },
{ "type": "Feature", "properties": { "円/ｍ2": 38200, "対前年変動率%": 4.7, "基準地の地名": "かほく", "所在並びに地番": "石川県　かほく市白尾ヲ２５２番", "前面道路の道路区分": "市区町村道", "基準地周辺の土地利用の状況": "中規模一般住宅が多い区画整理された住宅地域", "都市計画の用途地域": "1住居", "防火地域": "_", "都市計画区分": "非線引" }, "geometry": { "type": "Point", "coordinates": [ 136.69480972, 36.71894 ] } },
{ "type": "Feature", "properties": { "円/ｍ2": 11100, "対前年変動率%": 0.9, "基準地の地名": "かほく", "所在並びに地番": "石川県　かほく市松浜ロ４７番", "前面道路の道路区分": "市区町村道", "基準地周辺の土地利用の状況": "中規模一般住宅が多い撚糸工場も見られる既成住宅地域", "都市計画の用途地域": "準工", "防火地域": "_", "都市計画区分": "非線引" }, "geometry": { "type": "Point", "coordinates": [ 136.703598050000011, 36.74453083 ] } },
{ "type": "Feature", "properties": { "円/ｍ2": 36700, "対前年変動率%": 4.9, "基準地の地名": "かほく", "所在並びに地番": "石川県　かほく市宇野気ト５３番６", "前面道路の道路区分": "市区町村道", "基準地周辺の土地利用の状況": "中規模一般住宅が建ち並ぶ中心部の既成住宅地域", "都市計画の用途地域": "1住居", "防火地域": "_", "都市計画区分": "非線引" }, "geometry": { "type": "Point", "coordinates": [ 136.70227972, 36.71660416 ] } },
{ "type": "Feature", "properties": { "円/ｍ2": 17600, "対前年変動率%": 4.8, "基準地の地名": "かほく", "所在並びに地番": "石川県　かほく市横山タ１９５番２", "前面道路の道路区分": "都道府県道", "基準地周辺の土地利用の状況": "中規模一般住宅が多い県道沿いの既成住宅地域", "都市計画の用途地域": "1住居", "防火地域": "_", "都市計画区分": "非線引" }, "geometry": { "type": "Point", "coordinates": [ 136.71719388, 36.74577666 ] } },
{ "type": "Feature", "properties": { "円/ｍ2": 17200, "対前年変動率%": -1.1, "基準地の地名": "かほく", "所在並びに地番": "石川県　かほく市高松ウ７３番２", "前面道路の道路区分": "都道府県道", "基準地周辺の土地利用の状況": "小規模店舗と従来からの住宅が混在する近隣型商業地域", "都市計画の用途地域": "準工", "防火地域": "_", "都市計画区分": "非線引" }, "geometry": { "type": "Point", "coordinates": [ 136.720380830000011, 36.77125722 ] } },
{ "type": "Feature", "properties": { "円/ｍ2": 30200, "対前年変動率%": 4.1, "基準地の地名": "かほく", "所在並びに地番": "石川県　かほく市浜北イ１５番５外", "前面道路の道路区分": "国道", "基準地周辺の土地利用の状況": "中小規模の店舗、営業所、一般住宅等が混在する国道沿いの商業地域", "都市計画の用途地域": "準工", "防火地域": "_", "都市計画区分": "非線引" }, "geometry": { "type": "Point", "coordinates": [ 136.700840269999986, 36.73319972 ] } },
{ "type": "Feature", "properties": { "円/ｍ2": 44000, "対前年変動率%": 2.3, "基準地の地名": "かほく", "所在並びに地番": "石川県　かほく市宇野気リ２１２番３外", "前面道路の道路区分": "都道府県道", "基準地周辺の土地利用の状況": "中小規模の小売店舗が建ち並ぶ県道沿いの駅前商業地域", "都市計画の用途地域": "商業", "防火地域": "準防", "都市計画区分": "非線引" }, "geometry": { "type": "Point", "coordinates": [ 136.703275, 36.72183611 ] } },
{ "type": "Feature", "properties": { "円/ｍ2": 9600, "対前年変動率%": 2.1, "基準地の地名": "かほく", "所在並びに地番": "石川県　かほく市浜北イ４５番３外", "前面道路の道路区分": "市区町村道", "基準地周辺の土地利用の状況": "中小規模の工場のほかに公共施設、一般住宅等も見られる工業地域", "都市計画の用途地域": "準工", "防火地域": "_", "都市計画区分": "非線引" }, "geometry": { "type": "Point", "coordinates": [ 136.70492972, 36.73360527 ] } },
{ "type": "Feature", "properties": { "円/ｍ2": 66000, "対前年変動率%": 6.5, "基準地の地名": "白山", "所在並びに地番": "石川県　白山市千代野東４丁目４番５", "前面道路の道路区分": "市区町村道", "基準地周辺の土地利用の状況": "一般住宅が建ち並ぶ区画整然とした郊外の住宅地域", "都市計画の用途地域": "1低専", "防火地域": "_", "都市計画区分": "市街化" }, "geometry": { "type": "Point", "coordinates": [ 136.541435, 36.52580166 ] } },
{ "type": "Feature", "properties": { "円/ｍ2": 68500, "対前年変動率%": 1.5, "基準地の地名": "白山", "所在並びに地番": "石川県　白山市八ツ矢町５１１番", "前面道路の道路区分": "市区町村道", "基準地周辺の土地利用の状況": "中規模一般住宅のほか共同住宅、営業所も見られる住宅地域", "都市計画の用途地域": "1住居", "防火地域": "準防", "都市計画区分": "市街化" }, "geometry": { "type": "Point", "coordinates": [ 136.57322388, 36.52492277 ] } },
{ "type": "Feature", "properties": { "円/ｍ2": 71000, "対前年変動率%": 0.7, "基準地の地名": "白山", "所在並びに地番": "石川県　白山市西新町１６６番", "前面道路の道路区分": "市区町村道", "基準地周辺の土地利用の状況": "中規模一般住宅が建ち並ぶ市中心部に近い住宅地域", "都市計画の用途地域": "2住居", "防火地域": "準防", "都市計画区分": "市街化" }, "geometry": { "type": "Point", "coordinates": [ 136.563151659999988, 36.52415694 ] } },
{ "type": "Feature", "properties": { "円/ｍ2": 72500, "対前年変動率%": 1.4, "基準地の地名": "白山", "所在並びに地番": "石川県　白山市馬場１丁目１６３番", "前面道路の道路区分": "市区町村道", "基準地周辺の土地利用の状況": "一般住宅等が建ち並ぶ中心部に近い住宅地域", "都市計画の用途地域": "1住居", "防火地域": "準防", "都市計画区分": "市街化" }, "geometry": { "type": "Point", "coordinates": [ 136.56373388, 36.52030694 ] } },
{ "type": "Feature", "properties": { "円/ｍ2": 52000, "対前年変動率%": 4.0, "基準地の地名": "白山", "所在並びに地番": "石川県　白山市柏町５番７", "前面道路の道路区分": "市区町村道", "基準地周辺の土地利用の状況": "区画整然とした閑静な中規模一般住宅地域", "都市計画の用途地域": "1中専", "防火地域": "_", "都市計画区分": "市街化" }, "geometry": { "type": "Point", "coordinates": [ 136.53333361, 36.50469888 ] } },
{ "type": "Feature", "properties": { "円/ｍ2": 26000, "対前年変動率%": 2.8, "基準地の地名": "白山", "所在並びに地番": "石川県　白山市湊町２号５６番", "前面道路の道路区分": "市区町村道", "基準地周辺の土地利用の状況": "中規模一般住宅が建ち並ぶ区画整理済の住宅地域", "都市計画の用途地域": "1住居", "防火地域": "_", "都市計画区分": "市街化" }, "geometry": { "type": "Point", "coordinates": [ 136.476190269999989, 36.47704 ] } },
{ "type": "Feature", "properties": { "円/ｍ2": 32700, "対前年変動率%": 0.0, "基準地の地名": "白山", "所在並びに地番": "石川県　白山市美川和波町カ１１２番１", "前面道路の道路区分": "市区町村道", "基準地周辺の土地利用の状況": "中規模一般住宅が多い閑静な既成住宅地域", "都市計画の用途地域": "1住居", "防火地域": "_", "都市計画区分": "市街化" }, "geometry": { "type": "Point", "coordinates": [ 136.490665549999989, 36.49098166 ] } },
{ "type": "Feature", "properties": { "円/ｍ2": 26500, "対前年変動率%": -1.9, "基準地の地名": "白山", "所在並びに地番": "石川県　白山市鶴来知守町ル２０７番１", "前面道路の道路区分": "市区町村道", "基準地周辺の土地利用の状況": "中規模一般住宅が多い既成住宅地域", "都市計画の用途地域": "1住居", "防火地域": "_", "都市計画区分": "市街化" }, "geometry": { "type": "Point", "coordinates": [ 136.62807694, 36.45042777 ] } },
{ "type": "Feature", "properties": { "円/ｍ2": 62000, "対前年変動率%": 7.8, "基準地の地名": "白山", "所在並びに地番": "石川県　白山市富光寺町２２０番", "前面道路の道路区分": "市区町村道", "基準地周辺の土地利用の状況": "中規模一般住宅が建ち並ぶ区画整然とした住宅地域", "都市計画の用途地域": "1中専", "防火地域": "_", "都市計画区分": "市街化" }, "geometry": { "type": "Point", "coordinates": [ 136.6, 36.4948675 ] } },
{ "type": "Feature", "properties": { "円/ｍ2": 12700, "対前年変動率%": -1.6, "基準地の地名": "白山", "所在並びに地番": "石川県　白山市河内町ふじが丘８３番", "前面道路の道路区分": "市区町村道", "基準地周辺の土地利用の状況": "一般住宅が多い高台の開発分譲された住宅地域", "都市計画の用途地域": "_", "防火地域": "_", "都市計画区分": "都計外" }, "geometry": { "type": "Point", "coordinates": [ 136.62710138, 36.39929666 ] } },
{ "type": "Feature", "properties": { "円/ｍ2": 4100, "対前年変動率%": -2.4, "基準地の地名": "白山", "所在並びに地番": "石川県　白山市市原ハ７４番１外", "前面道路の道路区分": "市区町村道", "基準地周辺の土地利用の状況": "農家住宅が多い国道背後の山麓にある住宅地域", "都市計画の用途地域": "_", "防火地域": "_", "都市計画区分": "都計外" }, "geometry": { "type": "Point", "coordinates": [ 136.648546110000012, 36.31852305 ] } },
{ "type": "Feature", "properties": { "円/ｍ2": 5100, "対前年変動率%": -1.9, "基準地の地名": "白山", "所在並びに地番": "石川県　白山市上野町イ１２８番外", "前面道路の道路区分": "市区町村道", "基準地周辺の土地利用の状況": "農家住宅が見られる小学校に近い村落の住宅地域", "都市計画の用途地域": "_", "防火地域": "_", "都市計画区分": "都計外" }, "geometry": { "type": "Point", "coordinates": [ 136.60402194, 36.37177916 ] } },
{ "type": "Feature", "properties": { "円/ｍ2": 88000, "対前年変動率%": 3.5, "基準地の地名": "白山", "所在並びに地番": "石川県　白山市新成４丁目１２６番", "前面道路の道路区分": "市区町村道", "基準地周辺の土地利用の状況": "一般住宅等が建ち並ぶ区画整理済の住宅地域", "都市計画の用途地域": "1中専", "防火地域": "_", "都市計画区分": "市街化" }, "geometry": { "type": "Point", "coordinates": [ 136.555001940000011, 36.52985 ] } },
{ "type": "Feature", "properties": { "円/ｍ2": 3900, "対前年変動率%": -2.5, "基準地の地名": "白山", "所在並びに地番": "石川県　白山市桑島十号１番５０", "前面道路の道路区分": "市区町村道", "基準地周辺の土地利用の状況": "山間に形成された区画整然とした事業所も混在する住宅地域", "都市計画の用途地域": "_", "防火地域": "_", "都市計画区分": "都計外" }, "geometry": { "type": "Point", "coordinates": [ 136.627048050000013, 36.19224805 ] } },
{ "type": "Feature", "properties": { "円/ｍ2": 43500, "対前年変動率%": 4.8, "基準地の地名": "白山", "所在並びに地番": "石川県　白山市みずほ４丁目６番４", "前面道路の道路区分": "市区町村道", "基準地周辺の土地利用の状況": "水田地帯に造成された郊外の中規模住宅団地", "都市計画の用途地域": "_", "防火地域": "_", "都市計画区分": "調区" }, "geometry": { "type": "Point", "coordinates": [ 136.583236660000011, 36.49335388 ] } },
{ "type": "Feature", "properties": { "円/ｍ2": 47000, "対前年変動率%": 4.2, "基準地の地名": "白山", "所在並びに地番": "石川県　白山市一塚町７０３番８", "前面道路の道路区分": "市区町村道", "基準地周辺の土地利用の状況": "周辺に小工場、農地も見られる郊外の小規模な住宅地域", "都市計画の用途地域": "_", "防火地域": "_", "都市計画区分": "調区" }, "geometry": { "type": "Point", "coordinates": [ 136.56003555, 36.55639 ] } },
{ "type": "Feature", "properties": { "円/ｍ2": 22000, "対前年変動率%": 1.4, "基準地の地名": "白山", "所在並びに地番": "石川県　白山市村井町２２７５番１", "前面道路の道路区分": "道路", "基準地周辺の土地利用の状況": "周辺に住宅、営業所も見られ、宅地化されつつある地域", "都市計画の用途地域": "1住居", "防火地域": "_", "都市計画区分": "市街化" }, "geometry": { "type": "Point", "coordinates": [ 136.560483049999988, 36.50770388 ] } },
{ "type": "Feature", "properties": { "円/ｍ2": 79500, "対前年変動率%": 3.2, "基準地の地名": "白山", "所在並びに地番": "石川県　白山市東三番町３２番１", "前面道路の道路区分": "都道府県道", "基準地周辺の土地利用の状況": "中低層の店舗、事務所が多い駅に近い商業地域", "都市計画の用途地域": "近商", "防火地域": "準防", "都市計画区分": "市街化" }, "geometry": { "type": "Point", "coordinates": [ 136.56810694, 36.52546555 ] } },
{ "type": "Feature", "properties": { "円/ｍ2": 58000, "対前年変動率%": 0.9, "基準地の地名": "白山", "所在並びに地番": "石川県　白山市安田町４１番１外", "前面道路の道路区分": "都道府県道", "基準地周辺の土地利用の状況": "小売、飲食店舗のほか一般住宅も多く見られる既成商業地域", "都市計画の用途地域": "商業", "防火地域": "準防", "都市計画区分": "市街化" }, "geometry": { "type": "Point", "coordinates": [ 136.56254611, 36.52282888 ] } },
{ "type": "Feature", "properties": { "円/ｍ2": 39000, "対前年変動率%": 0.0, "基準地の地名": "白山", "所在並びに地番": "石川県　白山市美川北町ソ１６５番", "前面道路の道路区分": "市区町村道", "基準地周辺の土地利用の状況": "小売店舗等が多い幹線道路沿いの商業地域", "都市計画の用途地域": "近商", "防火地域": "_", "都市計画区分": "市街化" }, "geometry": { "type": "Point", "coordinates": [ 136.48877138, 36.48695888 ] } },
{ "type": "Feature", "properties": { "円/ｍ2": 36500, "対前年変動率%": 0.0, "基準地の地名": "白山", "所在並びに地番": "石川県　白山市鶴来本町１丁目ワ４８番", "前面道路の道路区分": "都道府県道", "基準地周辺の土地利用の状況": "店舗、一般住宅等が混在する既成商業地域", "都市計画の用途地域": "準工", "防火地域": "_", "都市計画区分": "市街化" }, "geometry": { "type": "Point", "coordinates": [ 136.62709805, 36.44725694 ] } },
{ "type": "Feature", "properties": { "円/ｍ2": 5900, "対前年変動率%": -1.7, "基準地の地名": "白山", "所在並びに地番": "石川県　白山市白峰ロ１７０番１外", "前面道路の道路区分": "市区町村道", "基準地周辺の土地利用の状況": "小売店舗のほか住宅も混在する既成商業地域", "都市計画の用途地域": "_", "防火地域": "_", "都市計画区分": "都計外" }, "geometry": { "type": "Point", "coordinates": [ 136.625616939999986, 36.17440361 ] } },
{ "type": "Feature", "properties": { "円/ｍ2": 6100, "対前年変動率%": -1.6, "基準地の地名": "白山", "所在並びに地番": "石川県　白山市瀬戸申５番外", "前面道路の道路区分": "国道", "基準地周辺の土地利用の状況": "店舗、営業所等が混在する国道沿いの商業地域", "都市計画の用途地域": "_", "防火地域": "_", "都市計画区分": "都計外" }, "geometry": { "type": "Point", "coordinates": [ 136.64367305, 36.29451 ] } },
{ "type": "Feature", "properties": { "円/ｍ2": 84500, "対前年変動率%": 3.0, "基準地の地名": "白山", "所在並びに地番": "石川県　白山市相木１丁目５番", "前面道路の道路区分": "市区町村道", "基準地周辺の土地利用の状況": "低層店舗のほか空地も見られる駅に近い新興商業地域", "都市計画の用途地域": "近商", "防火地域": "準防", "都市計画区分": "市街化" }, "geometry": { "type": "Point", "coordinates": [ 136.564108049999987, 36.52763 ] } },
{ "type": "Feature", "properties": { "円/ｍ2": 61000, "対前年変動率%": 0.8, "基準地の地名": "白山", "所在並びに地番": "石川県　白山市五歩市町４８５番２", "前面道路の道路区分": "都道府県道", "基準地周辺の土地利用の状況": "店舗、営業所、工場等が建ち並ぶ路線商業地域", "都市計画の用途地域": "準工", "防火地域": "_", "都市計画区分": "市街化" }, "geometry": { "type": "Point", "coordinates": [ 136.57540694, 36.52854305 ] } },
{ "type": "Feature", "properties": { "円/ｍ2": 78500, "対前年変動率%": 3.3, "基準地の地名": "白山", "所在並びに地番": "石川県　白山市幸明町３００番３", "前面道路の道路区分": "国道", "基準地周辺の土地利用の状況": "沿道サービス施設等が立地する国道沿いの商業地域", "都市計画の用途地域": "準工", "防火地域": "_", "都市計画区分": "市街化" }, "geometry": { "type": "Point", "coordinates": [ 136.5763325, 36.51752027 ] } },
{ "type": "Feature", "properties": { "円/ｍ2": 27500, "対前年変動率%": 3.8, "基準地の地名": "白山", "所在並びに地番": "石川県　白山市福留町５４６番２", "前面道路の道路区分": "市区町村道", "基準地周辺の土地利用の状況": "空地、農地も見られる中規模工業団地", "都市計画の用途地域": "工専", "防火地域": "_", "都市計画区分": "市街化" }, "geometry": { "type": "Point", "coordinates": [ 136.52343527, 36.49266166 ] } },
{ "type": "Feature", "properties": { "円/ｍ2": 20500, "対前年変動率%": 1.5, "基準地の地名": "白山", "所在並びに地番": "石川県　白山市森島町う１３８番１外", "前面道路の道路区分": "市区町村道", "基準地周辺の土地利用の状況": "水田地帯に造成された小規模工業団地", "都市計画の用途地域": "工業", "防火地域": "_", "都市計画区分": "市街化" }, "geometry": { "type": "Point", "coordinates": [ 136.595095, 36.46575111 ] } },
{ "type": "Feature", "properties": { "円/ｍ2": 21900, "対前年変動率%": 0.5, "基準地の地名": "能美", "所在並びに地番": "石川県　能美市泉台町中４８番", "前面道路の道路区分": "市区町村道", "基準地周辺の土地利用の状況": "郊外の丘陵地に造成された区画整然とした住宅地域", "都市計画の用途地域": "1低専", "防火地域": "_", "都市計画区分": "非線引" }, "geometry": { "type": "Point", "coordinates": [ 136.52420805, 36.43156388 ] } },
{ "type": "Feature", "properties": { "円/ｍ2": 33400, "対前年変動率%": 3.1, "基準地の地名": "能美", "所在並びに地番": "石川県　能美市寺井町ワ１１５番１", "前面道路の道路区分": "都道府県道", "基準地周辺の土地利用の状況": "中心部に近い一般住宅等の多い既成住宅地域", "都市計画の用途地域": "1住居", "防火地域": "_", "都市計画区分": "非線引" }, "geometry": { "type": "Point", "coordinates": [ 136.49669638, 36.43857777 ] } },
{ "type": "Feature", "properties": { "円/ｍ2": 29000, "対前年変動率%": 0.7, "基準地の地名": "能美", "所在並びに地番": "石川県　能美市出口町へ２１３番１０", "前面道路の道路区分": "市区町村道", "基準地周辺の土地利用の状況": "中規模一般住宅が建ち並ぶ住宅地域", "都市計画の用途地域": "2中専", "防火地域": "_", "都市計画区分": "非線引" }, "geometry": { "type": "Point", "coordinates": [ 136.54579694, 36.45548305 ] } },
{ "type": "Feature", "properties": { "円/ｍ2": 20700, "対前年変動率%": 0.0, "基準地の地名": "能美", "所在並びに地番": "石川県　能美市高坂町ニ１２１番１", "前面道路の道路区分": "市区町村道", "基準地周辺の土地利用の状況": "一般住宅のほか農家等が混在する住宅地域", "都市計画の用途地域": "1低専", "防火地域": "_", "都市計画区分": "非線引" }, "geometry": { "type": "Point", "coordinates": [ 136.45112111, 36.4395225 ] } },
{ "type": "Feature", "properties": { "円/ｍ2": 19000, "対前年変動率%": 0.0, "基準地の地名": "能美", "所在並びに地番": "石川県　能美市福島町ム４６番", "前面道路の道路区分": "市区町村道", "基準地周辺の土地利用の状況": "一般住宅のほか小工場等も見られる住宅地域", "都市計画の用途地域": "1住居", "防火地域": "_", "都市計画区分": "非線引" }, "geometry": { "type": "Point", "coordinates": [ 136.46791027, 36.46046222 ] } },
{ "type": "Feature", "properties": { "円/ｍ2": 24000, "対前年変動率%": 2.1, "基準地の地名": "能美", "所在並びに地番": "石川県　能美市緑が丘１丁目１２７番", "前面道路の道路区分": "市区町村道", "基準地周辺の土地利用の状況": "中規模一般住宅が多い丘陵地に開発された住宅団地", "都市計画の用途地域": "2中専", "防火地域": "_", "都市計画区分": "非線引" }, "geometry": { "type": "Point", "coordinates": [ 136.54227111, 36.44434694 ] } },
{ "type": "Feature", "properties": { "円/ｍ2": 16000, "対前年変動率%": -0.6, "基準地の地名": "能美", "所在並びに地番": "石川県　能美市新保町ヲ９番１", "前面道路の道路区分": "都道府県道", "基準地周辺の土地利用の状況": "一般住宅と農地等が混在する県道沿いの住宅地域", "都市計画の用途地域": "_", "防火地域": "_", "都市計画区分": "非線引" }, "geometry": { "type": "Point", "coordinates": [ 136.512573049999986, 36.454305 ] } },
{ "type": "Feature", "properties": { "円/ｍ2": 15700, "対前年変動率%": -1.3, "基準地の地名": "能美", "所在並びに地番": "石川県　能美市西任田町ヘ６２番３", "前面道路の道路区分": "都道府県道", "基準地周辺の土地利用の状況": "中規模一般住宅、農家、作業場等が混在する既成住宅地域", "都市計画の用途地域": "_", "防火地域": "_", "都市計画区分": "非線引" }, "geometry": { "type": "Point", "coordinates": [ 136.48741611, 36.45077833 ] } },
{ "type": "Feature", "properties": { "円/ｍ2": 33600, "対前年変動率%": -0.6, "基準地の地名": "能美", "所在並びに地番": "石川県　能美市寺井町た６７番外", "前面道路の道路区分": "市区町村道", "基準地周辺の土地利用の状況": "店舗、銀行等が建ち並ぶ中心部の商業地域", "都市計画の用途地域": "近商", "防火地域": "_", "都市計画区分": "非線引" }, "geometry": { "type": "Point", "coordinates": [ 136.494305, 36.43703555 ] } },
{ "type": "Feature", "properties": { "円/ｍ2": 28400, "対前年変動率%": 0.0, "基準地の地名": "能美", "所在並びに地番": "石川県　能美市大成町ト８８番２", "前面道路の道路区分": "市区町村道", "基準地周辺の土地利用の状況": "小売店舗と一般住宅が混在する近隣商業地域", "都市計画の用途地域": "近商", "防火地域": "_", "都市計画区分": "非線引" }, "geometry": { "type": "Point", "coordinates": [ 136.46187611, 36.45159527 ] } },
{ "type": "Feature", "properties": { "円/ｍ2": 28600, "対前年変動率%": 0.0, "基準地の地名": "能美", "所在並びに地番": "石川県　能美市辰口町５４８番１", "前面道路の道路区分": "市区町村道", "基準地周辺の土地利用の状況": "飲食店、小売店舗等が多い商業地域", "都市計画の用途地域": "準工", "防火地域": "_", "都市計画区分": "非線引" }, "geometry": { "type": "Point", "coordinates": [ 136.54552805, 36.44193194 ] } },
{ "type": "Feature", "properties": { "円/ｍ2": 28400, "対前年変動率%": 0.0, "基準地の地名": "能美", "所在並びに地番": "石川県　能美市三道山町オ９７番外", "前面道路の道路区分": "都道府県道", "基準地周辺の土地利用の状況": "店舗、営業所等の建ち並ぶ県道沿いの路線商業地域", "都市計画の用途地域": "準工", "防火地域": "_", "都市計画区分": "非線引" }, "geometry": { "type": "Point", "coordinates": [ 136.505828330000014, 36.44566 ] } },
{ "type": "Feature", "properties": { "円/ｍ2": 15200, "対前年変動率%": 1.3, "基準地の地名": "能美", "所在並びに地番": "石川県　能美市大浜町ケ６３番５外", "前面道路の道路区分": "市区町村道", "基準地周辺の土地利用の状況": "中小規模の工場のほかに一般住宅も見られる工業地域", "都市計画の用途地域": "工業", "防火地域": "_", "都市計画区分": "非線引" }, "geometry": { "type": "Point", "coordinates": [ 136.46292111, 36.45942444 ] } },
{ "type": "Feature", "properties": { "円/ｍ2": 93000, "対前年変動率%": 3.3, "基準地の地名": "野々市", "所在並びに地番": "石川県　野々市市菅原町５２番４", "前面道路の道路区分": "市区町村道", "基準地周辺の土地利用の状況": "中小規模一般住宅のほかアパートも見られる既成住宅地域", "都市計画の用途地域": "1住居", "防火地域": "_", "都市計画区分": "市街化" }, "geometry": { "type": "Point", "coordinates": [ 136.61635722, 36.52995277 ] } },
{ "type": "Feature", "properties": { "円/ｍ2": 95000, "対前年変動率%": 2.7, "基準地の地名": "野々市", "所在並びに地番": "石川県　野々市市扇が丘５０９番", "前面道路の道路区分": "市区町村道", "基準地周辺の土地利用の状況": "一般住宅、アパート等が混在する大学に近接した住宅地域", "都市計画の用途地域": "2中専", "防火地域": "_", "都市計画区分": "市街化" }, "geometry": { "type": "Point", "coordinates": [ 136.6283025, 36.52621194 ] } },
{ "type": "Feature", "properties": { "円/ｍ2": 103000, "対前年変動率%": 3.0, "基準地の地名": "野々市", "所在並びに地番": "石川県　野々市市御経塚１丁目３９７番", "前面道路の道路区分": "市区町村道", "基準地周辺の土地利用の状況": "区画整理済の幹線道路背後の閑静な住宅地域", "都市計画の用途地域": "1中専", "防火地域": "_", "都市計画区分": "市街化" }, "geometry": { "type": "Point", "coordinates": [ 136.596573049999989, 36.54343305 ] } },
{ "type": "Feature", "properties": { "円/ｍ2": 94500, "対前年変動率%": 2.7, "基準地の地名": "野々市", "所在並びに地番": "石川県　野々市市粟田４丁目４７番", "前面道路の道路区分": "市区町村道", "基準地周辺の土地利用の状況": "中規模一般住宅が多い区画整然とした住宅地域", "都市計画の用途地域": "1中専", "防火地域": "_", "都市計画区分": "市街化" }, "geometry": { "type": "Point", "coordinates": [ 136.61177111, 36.51605277 ] } },
{ "type": "Feature", "properties": { "円/ｍ2": 90000, "対前年変動率%": 3.4, "基準地の地名": "野々市", "所在並びに地番": "石川県　野々市市藤平田２丁目１１０番外", "前面道路の道路区分": "市区町村道", "基準地周辺の土地利用の状況": "店舗、事務所等が混在する幹線道路沿いの住宅地域", "都市計画の用途地域": "2住居", "防火地域": "_", "都市計画区分": "市街化" }, "geometry": { "type": "Point", "coordinates": [ 136.60715416, 36.52303138 ] } },
{ "type": "Feature", "properties": { "円/ｍ2": 99000, "対前年変動率%": 3.1, "基準地の地名": "野々市", "所在並びに地番": "石川県　野々市市上林４丁目５９１番", "前面道路の道路区分": "市区町村道", "基準地周辺の土地利用の状況": "中規模一般住宅が建ち並ぶ郊外の区画整理済の住宅地域", "都市計画の用途地域": "1低専", "防火地域": "_", "都市計画区分": "市街化" }, "geometry": { "type": "Point", "coordinates": [ 136.60623611, 36.50541222 ] } },
{ "type": "Feature", "properties": { "円/ｍ2": 97000, "対前年変動率%": 4.9, "基準地の地名": "野々市", "所在並びに地番": "石川県　野々市市若松町１８８番９", "前面道路の道路区分": "市区町村道", "基準地周辺の土地利用の状況": "住宅、アパート、事業所等が混在する住宅地域", "都市計画の用途地域": "準工", "防火地域": "_", "都市計画区分": "市街化" }, "geometry": { "type": "Point", "coordinates": [ 136.614416940000012, 36.53677916 ] } },
{ "type": "Feature", "properties": { "円/ｍ2": 64000, "対前年変動率%": 2.4, "基準地の地名": "野々市", "所在並びに地番": "石川県　野々市市清金３丁目２６番", "前面道路の道路区分": "市区町村道", "基準地周辺の土地利用の状況": "一般住宅が建ち並ぶ周囲に農地が多い住宅地域", "都市計画の用途地域": "_", "防火地域": "_", "都市計画区分": "調区" }, "geometry": { "type": "Point", "coordinates": [ 136.59713194, 36.51940972 ] } },
{ "type": "Feature", "properties": { "円/ｍ2": 93500, "対前年変動率%": 4.5, "基準地の地名": "野々市", "所在並びに地番": "石川県　野々市市横宮町５６番１", "前面道路の道路区分": "国道", "基準地周辺の土地利用の状況": "中低層の店舗、事務所等の多い路線商業地域", "都市計画の用途地域": "近商", "防火地域": "_", "都市計画区分": "市街化" }, "geometry": { "type": "Point", "coordinates": [ 136.6161625, 36.53599666 ] } },
{ "type": "Feature", "properties": { "円/ｍ2": 82500, "対前年変動率%": 3.1, "基準地の地名": "野々市", "所在並びに地番": "石川県　野々市市押野６丁目１１０番", "前面道路の道路区分": "都道府県道", "基準地周辺の土地利用の状況": "スーパー、低層の店舗等がみられる路線商業地域", "都市計画の用途地域": "準住居", "防火地域": "_", "都市計画区分": "市街化" }, "geometry": { "type": "Point", "coordinates": [ 136.61914944, 36.54563277 ] } },
{ "type": "Feature", "properties": { "円/ｍ2": 90000, "対前年変動率%": 3.4, "基準地の地名": "野々市", "所在並びに地番": "石川県　野々市市扇が丘４２４番外", "前面道路の道路区分": "市区町村道", "基準地周辺の土地利用の状況": "郊外型の小売店舗、飲食店等が多い路線商業地域", "都市計画の用途地域": "準住居", "防火地域": "_", "都市計画区分": "市街化" }, "geometry": { "type": "Point", "coordinates": [ 136.62991638, 36.52902555 ] } },
{ "type": "Feature", "properties": { "円/ｍ2": 86000, "対前年変動率%": 4.2, "基準地の地名": "野々市", "所在並びに地番": "石川県　野々市市新庄６丁目４５４番外", "前面道路の道路区分": "市区町村道", "基準地周辺の土地利用の状況": "量販店、飲食店等が建ち並ぶ郊外の路線商業地域", "都市計画の用途地域": "2住居", "防火地域": "_", "都市計画区分": "市街化" }, "geometry": { "type": "Point", "coordinates": [ 136.607639440000014, 36.50675972 ] } },
{ "type": "Feature", "properties": { "円/ｍ2": 90000, "対前年変動率%": 4.0, "基準地の地名": "野々市", "所在並びに地番": "石川県　野々市市野代１丁目６番外", "前面道路の道路区分": "市区町村道", "基準地周辺の土地利用の状況": "店舗、営業所、住宅等の混在する路線商業地域", "都市計画の用途地域": "準工", "防火地域": "_", "都市計画区分": "市街化" }, "geometry": { "type": "Point", "coordinates": [ 136.601943049999988, 36.53894333 ] } },
{ "type": "Feature", "properties": { "円/ｍ2": 90000, "対前年変動率%": 4.0, "基準地の地名": "野々市", "所在並びに地番": "石川県　野々市市御経塚４丁目９４番外", "前面道路の道路区分": "国道", "基準地周辺の土地利用の状況": "大型店舗、営業所等が進出する国道沿いの路線商業地域", "都市計画の用途地域": "準工", "防火地域": "_", "都市計画区分": "市街化" }, "geometry": { "type": "Point", "coordinates": [ 136.60001555, 36.55113916 ] } },
{ "type": "Feature", "properties": { "円/ｍ2": 13400, "対前年変動率%": 0.0, "基準地の地名": "川北", "所在並びに地番": "石川県　能美郡川北町字山田先出礼７５番外", "前面道路の道路区分": "道路", "基準地周辺の土地利用の状況": "農家住宅のほか一般住宅も見られる集落地域", "都市計画の用途地域": "_", "防火地域": "_", "都市計画区分": "非線引" }, "geometry": { "type": "Point", "coordinates": [ 136.549123329999986, 36.46681083 ] } },
{ "type": "Feature", "properties": { "円/ｍ2": 37500, "対前年変動率%": 3.6, "基準地の地名": "川北", "所在並びに地番": "石川県　能美郡川北町字中島ト２４番７", "前面道路の道路区分": "道路", "基準地周辺の土地利用の状況": "農家住宅に近い小規模な住宅団地", "都市計画の用途地域": "_", "防火地域": "_", "都市計画区分": "非線引" }, "geometry": { "type": "Point", "coordinates": [ 136.587951940000011, 36.46315305 ] } },
{ "type": "Feature", "properties": { "円/ｍ2": 22900, "対前年変動率%": 0.0, "基準地の地名": "川北", "所在並びに地番": "石川県　能美郡川北町字田子島エ１２１番", "前面道路の道路区分": "都道府県道", "基準地周辺の土地利用の状況": "店舗、事務所、住宅等が混在する県道沿いの商業地域", "都市計画の用途地域": "_", "防火地域": "_", "都市計画区分": "非線引" }, "geometry": { "type": "Point", "coordinates": [ 136.51412277, 36.47406611 ] } },
{ "type": "Feature", "properties": { "円/ｍ2": 48800, "対前年変動率%": 3.8, "基準地の地名": "津幡", "所在並びに地番": "石川県　河北郡津幡町字庄ロ６６番１", "前面道路の道路区分": "市区町村道", "基準地周辺の土地利用の状況": "一般住宅が建ち並ぶほか空地が見られる既成住宅地域", "都市計画の用途地域": "2低専", "防火地域": "_", "都市計画区分": "非線引" }, "geometry": { "type": "Point", "coordinates": [ 136.7273825, 36.67532277 ] } },
{ "type": "Feature", "properties": { "円/ｍ2": 42000, "対前年変動率%": 0.0, "基準地の地名": "津幡", "所在並びに地番": "石川県　河北郡津幡町字太田ほ１４５番５", "前面道路の道路区分": "市区町村道", "基準地周辺の土地利用の状況": "中小規模一般住宅が建ち並ぶ周辺に農地の多い住宅地域", "都市計画の用途地域": "1中専", "防火地域": "_", "都市計画区分": "非線引" }, "geometry": { "type": "Point", "coordinates": [ 136.721867769999989, 36.65043527 ] } },
{ "type": "Feature", "properties": { "円/ｍ2": 31700, "対前年変動率%": 3.9, "基準地の地名": "津幡", "所在並びに地番": "石川県　河北郡津幡町字能瀬へ３９番２", "前面道路の道路区分": "市区町村道", "基準地周辺の土地利用の状況": "中規模一般住宅の多い郊外の住宅地域", "都市計画の用途地域": "_", "防火地域": "_", "都市計画区分": "非線引" }, "geometry": { "type": "Point", "coordinates": [ 136.71654027, 36.69014166 ] } },
{ "type": "Feature", "properties": { "円/ｍ2": 29000, "対前年変動率%": 0.0, "基準地の地名": "津幡", "所在並びに地番": "石川県　河北郡津幡町字津幡は９２番外", "前面道路の道路区分": "市区町村道", "基準地周辺の土地利用の状況": "中規模一般住宅が多いやや高台の住宅地域", "都市計画の用途地域": "1低専", "防火地域": "_", "都市計画区分": "非線引" }, "geometry": { "type": "Point", "coordinates": [ 136.74109694, 36.67362111 ] } },
{ "type": "Feature", "properties": { "円/ｍ2": 45000, "対前年変動率%": 1.1, "基準地の地名": "津幡", "所在並びに地番": "石川県　河北郡津幡町字津幡ハ９１番１", "前面道路の道路区分": "市区町村道", "基準地周辺の土地利用の状況": "中小規模の小売店舗が建ち並ぶ既成の商業地域", "都市計画の用途地域": "近商", "防火地域": "_", "都市計画区分": "非線引" }, "geometry": { "type": "Point", "coordinates": [ 136.7356275, 36.67182805 ] } },
{ "type": "Feature", "properties": { "円/ｍ2": 18300, "対前年変動率%": 1.1, "基準地の地名": "津幡", "所在並びに地番": "石川県　河北郡津幡町字浅田甲７８番２外", "前面道路の道路区分": "都道府県道", "基準地周辺の土地利用の状況": "工場、営業所等が建ち並び農地等も混在する県道沿いの工業地域", "都市計画の用途地域": "準工", "防火地域": "_", "都市計画区分": "非線引" }, "geometry": { "type": "Point", "coordinates": [ 136.742049720000011, 36.66578472 ] } },
{ "type": "Feature", "properties": { "円/ｍ2": 58500, "対前年変動率%": 2.6, "基準地の地名": "内灘", "所在並びに地番": "石川県　河北郡内灘町字緑台１丁目７０番", "前面道路の道路区分": "市区町村道", "基準地周辺の土地利用の状況": "中規模一般住宅が多い閑静な住宅地域", "都市計画の用途地域": "1中専", "防火地域": "_", "都市計画区分": "市街化" }, "geometry": { "type": "Point", "coordinates": [ 136.629251939999989, 36.63398444 ] } },
{ "type": "Feature", "properties": { "円/ｍ2": 45500, "対前年変動率%": 1.1, "基準地の地名": "内灘", "所在並びに地番": "石川県　河北郡内灘町字千鳥台１丁目４番１", "前面道路の道路区分": "市区町村道", "基準地周辺の土地利用の状況": "一般住宅の中に空地等が見られる住宅地域", "都市計画の用途地域": "1低専", "防火地域": "_", "都市計画区分": "市街化" }, "geometry": { "type": "Point", "coordinates": [ 136.62506222, 36.63380138 ] } },
{ "type": "Feature", "properties": { "円/ｍ2": 51000, "対前年変動率%": 1.0, "基準地の地名": "内灘", "所在並びに地番": "石川県　河北郡内灘町字大根布７丁目３８番", "前面道路の道路区分": "市区町村道", "基準地周辺の土地利用の状況": "中規模一般住宅が多い区画整然とした住宅地域", "都市計画の用途地域": "2中専", "防火地域": "_", "都市計画区分": "市街化" }, "geometry": { "type": "Point", "coordinates": [ 136.64695, 36.65143194 ] } },
{ "type": "Feature", "properties": { "円/ｍ2": 56000, "対前年変動率%": 1.8, "基準地の地名": "内灘", "所在並びに地番": "石川県　河北郡内灘町字旭ケ丘２２０番", "前面道路の道路区分": "市区町村道", "基準地周辺の土地利用の状況": "一般住宅、アパート等が混在する区画整然とした住宅地域", "都市計画の用途地域": "1住居", "防火地域": "_", "都市計画区分": "市街化" }, "geometry": { "type": "Point", "coordinates": [ 136.634095269999989, 36.629915 ] } },
{ "type": "Feature", "properties": { "円/ｍ2": 44000, "対前年変動率%": -2.2, "基準地の地名": "内灘", "所在並びに地番": "石川県　河北郡内灘町字鶴ケ丘１丁目３３９番", "前面道路の道路区分": "市区町村道", "基準地周辺の土地利用の状況": "一般住宅の中にアパート等も見られる郊外の住宅地域", "都市計画の用途地域": "1住居", "防火地域": "_", "都市計画区分": "市街化" }, "geometry": { "type": "Point", "coordinates": [ 136.64249361, 36.64020527 ] } },
{ "type": "Feature", "properties": { "円/ｍ2": 11300, "対前年変動率%": -4.2, "基準地の地名": "内灘", "所在並びに地番": "石川県　河北郡内灘町字宮坂ホ２０番", "前面道路の道路区分": "都道府県道", "基準地周辺の土地利用の状況": "地震により損壊した住宅や工場等が残る県道沿いの住宅地域", "都市計画の用途地域": "_", "防火地域": "_", "都市計画区分": "調区" }, "geometry": { "type": "Point", "coordinates": [ 136.66017638, 36.66839666 ] } },
{ "type": "Feature", "properties": { "円/ｍ2": 57000, "対前年変動率%": 0.0, "基準地の地名": "内灘", "所在並びに地番": "石川県　河北郡内灘町字向陽台１丁目１９４番外", "前面道路の道路区分": "市区町村道", "基準地周辺の土地利用の状況": "スーパー、低層店舗等が建ち並ぶ路線商業地域", "都市計画の用途地域": "2住居", "防火地域": "_", "都市計画区分": "市街化" }, "geometry": { "type": "Point", "coordinates": [ 136.635605, 36.63792305 ] } },
{ "type": "Feature", "properties": { "円/ｍ2": 9000, "対前年変動率%": -3.7, "基準地の地名": "志賀", "所在並びに地番": "石川県　羽咋郡志賀町高浜町チ４１番１", "前面道路の道路区分": "市区町村道", "基準地周辺の土地利用の状況": "地震による損壊建物のほか、再建中の建物も見られる混在住宅地域", "都市計画の用途地域": "_", "防火地域": "_", "都市計画区分": "非線引" }, "geometry": { "type": "Point", "coordinates": [ 136.77138861, 37.00335083 ] } },
{ "type": "Feature", "properties": { "円/ｍ2": 3450, "対前年変動率%": -2.8, "基準地の地名": "志賀", "所在並びに地番": "石川県　羽咋郡志賀町松木い１８番２", "前面道路の道路区分": "市区町村道", "基準地周辺の土地利用の状況": "中規模一般住宅のほか店舗、郵便局等が混在する集落地域", "都市計画の用途地域": "_", "防火地域": "_", "都市計画区分": "非線引" }, "geometry": { "type": "Point", "coordinates": [ 136.78204833, 37.06880222 ] } },
{ "type": "Feature", "properties": { "円/ｍ2": 11900, "対前年変動率%": -1.7, "基準地の地名": "志賀", "所在並びに地番": "石川県　羽咋郡志賀町高浜町ヤ１４９番３８", "前面道路の道路区分": "市区町村道", "基準地周辺の土地利用の状況": "中規模一般住宅のほかアパート等が見られる住宅地域", "都市計画の用途地域": "_", "防火地域": "_", "都市計画区分": "非線引" }, "geometry": { "type": "Point", "coordinates": [ 136.77928388, 37.00033444 ] } },
{ "type": "Feature", "properties": { "円/ｍ2": 7100, "対前年変動率%": 0.0, "基準地の地名": "志賀", "所在並びに地番": "石川県　羽咋郡志賀町富来高田参１５番", "前面道路の道路区分": "市区町村道", "基準地周辺の土地利用の状況": "建物解体が進み、空地も多く見られる既成住宅地域", "都市計画の用途地域": "_", "防火地域": "_", "都市計画区分": "非線引" }, "geometry": { "type": "Point", "coordinates": [ 136.73221888, 37.1412 ] } },
{ "type": "Feature", "properties": { "円/ｍ2": 5750, "対前年変動率%": -3.4, "基準地の地名": "志賀", "所在並びに地番": "石川県　羽咋郡志賀町里本江五参９１番", "前面道路の道路区分": "市区町村道", "基準地周辺の土地利用の状況": "建物解体により空地が増え、修繕中の建物も見られる住宅地域", "都市計画の用途地域": "_", "防火地域": "_", "都市計画区分": "非線引" }, "geometry": { "type": "Point", "coordinates": [ 136.721360550000014, 37.1524 ] } },
{ "type": "Feature", "properties": { "円/ｍ2": 4100, "対前年変動率%": -3.5, "基準地の地名": "志賀", "所在並びに地番": "石川県　羽咋郡志賀町酒見新堂２１０番１", "前面道路の道路区分": "市区町村道", "基準地周辺の土地利用の状況": "地震による損壊建物のほか、建物解体により空地も増えた住宅地域", "都市計画の用途地域": "_", "防火地域": "_", "都市計画区分": "非線引" }, "geometry": { "type": "Point", "coordinates": [ 136.701244159999987, 37.15383777 ] } },
{ "type": "Feature", "properties": { "円/ｍ2": 14300, "対前年変動率%": -3.4, "基準地の地名": "志賀", "所在並びに地番": "石川県　羽咋郡志賀町高浜町ク３番７５", "前面道路の道路区分": "市区町村道", "基準地周辺の土地利用の状況": "店舗、銀行等のほか、地震による損壊建物も見られる近隣商業地域", "都市計画の用途地域": "_", "防火地域": "_", "都市計画区分": "非線引" }, "geometry": { "type": "Point", "coordinates": [ 136.776420550000012, 37.00310222 ] } },
{ "type": "Feature", "properties": { "円/ｍ2": 9100, "対前年変動率%": -2.2, "基準地の地名": "宝達志水", "所在並びに地番": "石川県　羽咋郡宝達志水町敷浪ハ１７０番１１", "前面道路の道路区分": "市区町村道", "基準地周辺の土地利用の状況": "地震で被災した建物も見られる国道背後の住宅地域", "都市計画の用途地域": "_", "防火地域": "_", "都市計画区分": "都計外" }, "geometry": { "type": "Point", "coordinates": [ 136.77000027, 36.85251777 ] } },
{ "type": "Feature", "properties": { "円/ｍ2": 7400, "対前年変動率%": -2.0, "基準地の地名": "宝達志水", "所在並びに地番": "石川県　羽咋郡宝達志水町荻市ヌ３６番７", "前面道路の道路区分": "市区町村道", "基準地周辺の土地利用の状況": "中規模一般住宅が建ち並ぶ既成住宅地域", "都市計画の用途地域": "_", "防火地域": "_", "都市計画区分": "都計外" }, "geometry": { "type": "Point", "coordinates": [ 136.79217666, 36.86102277 ] } },
{ "type": "Feature", "properties": { "円/ｍ2": 10400, "対前年変動率%": -1.0, "基準地の地名": "宝達志水", "所在並びに地番": "石川県　羽咋郡宝達志水町小川弐７７番６", "前面道路の道路区分": "市区町村道", "基準地周辺の土地利用の状況": "一般住宅のほか農地も多い国道背後の住宅地域", "都市計画の用途地域": "_", "防火地域": "_", "都市計画区分": "都計外" }, "geometry": { "type": "Point", "coordinates": [ 136.759077499999989, 36.82083638 ] } },
{ "type": "Feature", "properties": { "円/ｍ2": 9050, "対前年変動率%": -1.1, "基準地の地名": "宝達志水", "所在並びに地番": "石川県　羽咋郡宝達志水町免田弐５５番１", "前面道路の道路区分": "市区町村道", "基準地周辺の土地利用の状況": "一般住宅のほか工場、空地も見られる住宅地域", "都市計画の用途地域": "_", "防火地域": "_", "都市計画区分": "都計外" }, "geometry": { "type": "Point", "coordinates": [ 136.74848472, 36.79739861 ] } },
{ "type": "Feature", "properties": { "円/ｍ2": 10300, "対前年変動率%": -2.8, "基準地の地名": "宝達志水", "所在並びに地番": "石川県　羽咋郡宝達志水町子浦レ１８２番４", "前面道路の道路区分": "都道府県道", "基準地周辺の土地利用の状況": "小売店舗、住宅等が混在する既成商業地域", "都市計画の用途地域": "_", "防火地域": "_", "都市計画区分": "都計外" }, "geometry": { "type": "Point", "coordinates": [ 136.7927875, 36.86373916 ] } },
{ "type": "Feature", "properties": { "円/ｍ2": 11800, "対前年変動率%": -1.7, "基準地の地名": "宝達志水", "所在並びに地番": "石川県　羽咋郡宝達志水町今浜へ２７３番外", "前面道路の道路区分": "国道", "基準地周辺の土地利用の状況": "銀行、小売店舗のほか一般住宅、空地も目立つ商業地域", "都市計画の用途地域": "_", "防火地域": "_", "都市計画区分": "都計外" }, "geometry": { "type": "Point", "coordinates": [ 136.7573875, 36.82594777 ] } },
{ "type": "Feature", "properties": { "円/ｍ2": 4550, "対前年変動率%": -1.1, "基準地の地名": "宝達志水", "所在並びに地番": "石川県　羽咋郡宝達志水町小川四１番２外", "前面道路の道路区分": "市区町村道", "基準地周辺の土地利用の状況": "国道に近い流通業務施設等が見られる工業地域", "都市計画の用途地域": "_", "防火地域": "_", "都市計画区分": "都計外" }, "geometry": { "type": "Point", "coordinates": [ 136.76141888, 36.81643833 ] } },
{ "type": "Feature", "properties": { "円/ｍ2": 5700, "対前年変動率%": -2.6, "基準地の地名": "中能登", "所在並びに地番": "石川県　鹿島郡中能登町徳前む４番１外", "前面道路の道路区分": "市区町村道", "基準地周辺の土地利用の状況": "一般住宅のほか工場、農地も見られる住宅地域", "都市計画の用途地域": "_", "防火地域": "_", "都市計画区分": "都計外" }, "geometry": { "type": "Point", "coordinates": [ 136.91872694, 36.97743 ] } },
{ "type": "Feature", "properties": { "円/ｍ2": 11500, "対前年変動率%": -0.9, "基準地の地名": "中能登", "所在並びに地番": "石川県　鹿島郡中能登町良川お２２番１０", "前面道路の道路区分": "市区町村道", "基準地周辺の土地利用の状況": "中規模住宅が多いＪＲ駅に近い区画整然とした住宅地域", "都市計画の用途地域": "_", "防火地域": "_", "都市計画区分": "都計外" }, "geometry": { "type": "Point", "coordinates": [ 136.895892769999989, 36.97616944 ] } },
{ "type": "Feature", "properties": { "円/ｍ2": 13600, "対前年変動率%": -0.7, "基準地の地名": "中能登", "所在並びに地番": "石川県　鹿島郡中能登町能登部下四四１番１７", "前面道路の道路区分": "市区町村道", "基準地周辺の土地利用の状況": "一般住宅が建ち並ぶ区画整然とした住宅地域", "都市計画の用途地域": "_", "防火地域": "_", "都市計画区分": "都計外" }, "geometry": { "type": "Point", "coordinates": [ 136.86538416, 36.95693305 ] } },
{ "type": "Feature", "properties": { "円/ｍ2": 5300, "対前年変動率%": -3.6, "基準地の地名": "中能登", "所在並びに地番": "石川県　鹿島郡中能登町金丸又を２番７", "前面道路の道路区分": "市区町村道", "基準地周辺の土地利用の状況": "ＪＲ駅に近い中規模一般住宅のほか農地も見られる住宅地域", "都市計画の用途地域": "_", "防火地域": "_", "都市計画区分": "都計外" }, "geometry": { "type": "Point", "coordinates": [ 136.83815277, 36.94310638 ] } },
{ "type": "Feature", "properties": { "円/ｍ2": 4450, "対前年変動率%": -3.3, "基準地の地名": "中能登", "所在並びに地番": "石川県　鹿島郡中能登町小竹ノ４番", "前面道路の道路区分": "市区町村道", "基準地周辺の土地利用の状況": "農地も見られる県道背後の農家住宅地域", "都市計画の用途地域": "_", "防火地域": "_", "都市計画区分": "都計外" }, "geometry": { "type": "Point", "coordinates": [ 136.89750555, 36.95590916 ] } },
{ "type": "Feature", "properties": { "円/ｍ2": 8900, "対前年変動率%": -3.3, "基準地の地名": "中能登", "所在並びに地番": "石川県　鹿島郡中能登町末坂壱〇７９番１外", "前面道路の道路区分": "都道府県道", "基準地周辺の土地利用の状況": "小売店舗、営業所等が混在する県道沿いの路線商業地域", "都市計画の用途地域": "_", "防火地域": "_", "都市計画区分": "都計外" }, "geometry": { "type": "Point", "coordinates": [ 136.90016861, 36.98948611 ] } },
{ "type": "Feature", "properties": { "円/ｍ2": 9600, "対前年変動率%": -2.0, "基準地の地名": "中能登", "所在並びに地番": "石川県　鹿島郡中能登町能登部上ヲ１１８番３", "前面道路の道路区分": "都道府県道", "基準地周辺の土地利用の状況": "店舗のほか一般住宅も見られる県道沿いの商業地域", "都市計画の用途地域": "_", "防火地域": "_", "都市計画区分": "都計外" }, "geometry": { "type": "Point", "coordinates": [ 136.87097305, 36.96421694 ] } },
{ "type": "Feature", "properties": { "円/ｍ2": 14900, "対前年変動率%": -0.7, "基準地の地名": "中能登", "所在並びに地番": "石川県　鹿島郡中能登町最勝講る４６番１外", "前面道路の道路区分": "国道", "基準地周辺の土地利用の状況": "国道沿いに低層店舗が集積する路線商業地域", "都市計画の用途地域": "_", "防火地域": "_", "都市計画区分": "都計外" }, "geometry": { "type": "Point", "coordinates": [ 136.90336611, 36.96878111 ] } },
{ "type": "Feature", "properties": { "円/ｍ2": 3850, "対前年変動率%": -2.5, "基準地の地名": "中能登", "所在並びに地番": "石川県　鹿島郡中能登町久江ク１７番２", "前面道路の道路区分": "市区町村道", "基準地周辺の土地利用の状況": "繊維工場、配送センター等がある小規模工業団地", "都市計画の用途地域": "_", "防火地域": "_", "都市計画区分": "都計外" }, "geometry": { "type": "Point", "coordinates": [ 136.88764027, 36.95661972 ] } },
{ "type": "Feature", "properties": { "円/ｍ2": 14900, "対前年変動率%": 0.0, "基準地の地名": "穴水", "所在並びに地番": "石川県　鳳珠郡穴水町字大町ニ３０番１", "前面道路の道路区分": "市区町村道", "基準地周辺の土地利用の状況": "一般住宅及び店舗のほか建物解体後の空地も見られる住宅地域", "都市計画の用途地域": "1住居", "防火地域": "_", "都市計画区分": "非線引" }, "geometry": { "type": "Point", "coordinates": [ 136.90712138, 37.22958305 ] } },
{ "type": "Feature", "properties": { "円/ｍ2": 6300, "対前年変動率%": 0.0, "基準地の地名": "穴水", "所在並びに地番": "石川県　鳳珠郡穴水町字由比ケ丘は２番２３", "前面道路の道路区分": "市区町村道", "基準地周辺の土地利用の状況": "建物解体後の空地が多く見られる高台の住宅地域", "都市計画の用途地域": "_", "防火地域": "_", "都市計画区分": "非線引" }, "geometry": { "type": "Point", "coordinates": [ 136.91969638, 37.23110861 ] } },
{ "type": "Feature", "properties": { "円/ｍ2": 17700, "対前年変動率%": -3.3, "基準地の地名": "穴水", "所在並びに地番": "石川県　鳳珠郡穴水町字大町ニ１０８番６", "前面道路の道路区分": "都道府県道", "基準地周辺の土地利用の状況": "地震により一部損壊した建物も見られる駅前商業地域", "都市計画の用途地域": "近商", "防火地域": "_", "都市計画区分": "非線引" }, "geometry": { "type": "Point", "coordinates": [ 136.906416940000014, 37.22817444 ] } },
{ "type": "Feature", "properties": { "円/ｍ2": 13100, "対前年変動率%": -3.7, "基準地の地名": "穴水", "所在並びに地番": "石川県　鳳珠郡穴水町字鵜島ハ１９番外", "前面道路の道路区分": "国道", "基準地周辺の土地利用の状況": "工場、営業所、店舗等が混在する国道沿いの路線商業地域", "都市計画の用途地域": "準工", "防火地域": "_", "都市計画区分": "非線引" }, "geometry": { "type": "Point", "coordinates": [ 136.90780111, 37.22407777 ] } },
{ "type": "Feature", "properties": { "円/ｍ2": 11600, "対前年変動率%": -3.3, "基準地の地名": "能登", "所在並びに地番": "石川県　鳳珠郡能登町字宇出津井字７７番１", "前面道路の道路区分": "市区町村道", "基準地周辺の土地利用の状況": "地震後、空地が増えた港に近い既成住宅地域", "都市計画の用途地域": "_", "防火地域": "_", "都市計画区分": "非線引" }, "geometry": { "type": "Point", "coordinates": [ 137.15113166, 37.30344416 ] } },
{ "type": "Feature", "properties": { "円/ｍ2": 5150, "対前年変動率%": -3.7, "基準地の地名": "能登", "所在並びに地番": "石川県　鳳珠郡能登町字鵜川弐〇字３５番５", "前面道路の道路区分": "市区町村道", "基準地周辺の土地利用の状況": "地震後、空地が増えた既成住宅地域", "都市計画の用途地域": "_", "防火地域": "_", "都市計画区分": "都計外" }, "geometry": { "type": "Point", "coordinates": [ 137.08298444, 37.25468027 ] } },
{ "type": "Feature", "properties": { "円/ｍ2": 5800, "対前年変動率%": -3.3, "基準地の地名": "能登", "所在並びに地番": "石川県　鳳珠郡能登町字上町ほ部４９番", "前面道路の道路区分": "都道府県道", "基準地周辺の土地利用の状況": "地震による損壊建物の修繕が進む県道沿いの農村住宅地域", "都市計画の用途地域": "_", "防火地域": "_", "都市計画区分": "都計外" }, "geometry": { "type": "Point", "coordinates": [ 137.11283472, 37.34997833 ] } },
{ "type": "Feature", "properties": { "円/ｍ2": 8200, "対前年変動率%": -3.5, "基準地の地名": "能登", "所在並びに地番": "石川県　鳳珠郡能登町字松波壱〇字６９番", "前面道路の道路区分": "市区町村道", "基準地周辺の土地利用の状況": "地震後、空地が増えた既成住宅地域", "都市計画の用途地域": "_", "防火地域": "_", "都市計画区分": "非線引" }, "geometry": { "type": "Point", "coordinates": [ 137.24466444, 37.35523638 ] } },
{ "type": "Feature", "properties": { "円/ｍ2": 7350, "対前年変動率%": -3.3, "基準地の地名": "能登", "所在並びに地番": "石川県　鳳珠郡能登町字小木壱参字５５番", "前面道路の道路区分": "市区町村道", "基準地周辺の土地利用の状況": "小木港に近接し地震後、損壊建物の修繕が進む一般住宅地域", "都市計画の用途地域": "_", "防火地域": "_", "都市計画区分": "非線引" }, "geometry": { "type": "Point", "coordinates": [ 137.230783050000014, 37.29858416 ] } },
{ "type": "Feature", "properties": { "円/ｍ2": 16300, "対前年変動率%": -3.0, "基準地の地名": "能登", "所在並びに地番": "石川県　鳳珠郡能登町字宇出津ム字１０番１", "前面道路の道路区分": "都道府県道", "基準地周辺の土地利用の状況": "地震後、空地が増えた県道沿いの既成商業地域", "都市計画の用途地域": "_", "防火地域": "_", "都市計画区分": "非線引" }, "geometry": { "type": "Point", "coordinates": [ 137.14794611, 37.30624111 ] } },
{ "type": "Feature", "properties": { "円/ｍ2": 9000, "対前年変動率%": -3.2, "基準地の地名": "能登", "所在並びに地番": "石川県　鳳珠郡能登町字柳田仁部６８番１", "前面道路の道路区分": "都道府県道", "基準地周辺の土地利用の状況": "地震による損壊建物の修繕が進む県道沿いの商業地域", "都市計画の用途地域": "_", "防火地域": "_", "都市計画区分": "都計外" }, "geometry": { "type": "Point", "coordinates": [ 137.09726694, 37.36806 ] } },
{ "type": "Feature", "properties": { "円/ｍ2": 11700, "対前年変動率%": 0.0, "基準地の地名": "能登", "所在並びに地番": "石川県　鳳珠郡能登町字松波壱〇字３番３", "前面道路の道路区分": "市区町村道", "基準地周辺の土地利用の状況": "地震後、空地が増えた既成商業地域", "都市計画の用途地域": "_", "防火地域": "_", "都市計画区分": "非線引" }, "geometry": { "type": "Point", "coordinates": [ 137.242353329999986, 37.35513388 ] } },
{ "type": "Feature", "properties": { "円/ｍ2": 270000, "対前年変動率%": 0.0, "基準地の地名": "石川（林）", "所在並びに地番": "石川県　金沢市北方町タ１０番１", "前面道路の道路区分": "道路", "基準地周辺の土地利用の状況": "標高１００ｍ約３０度の西向き傾斜の地域で杉、雑木等の混在林地", "都市計画の用途地域": "_", "防火地域": "_", "都市計画区分": "都計外" }, "geometry": { "type": "Point", "coordinates": [ 136.76760361, 36.58158277 ] } },
{ "type": "Feature", "properties": { "円/ｍ2": 450000, "対前年変動率%": -3.2, "基準地の地名": "石川（林）", "所在並びに地番": "石川県　小松市長谷町ナ１５番１３", "前面道路の道路区分": "市区町村道", "基準地周辺の土地利用の状況": "周辺にゴルフ場等が開発された標高８０ｍの丘陵状の自然林地域", "都市計画の用途地域": "_", "防火地域": "_", "都市計画区分": "都計外" }, "geometry": { "type": "Point", "coordinates": [ 136.47646888, 36.35697888 ] } },
{ "type": "Feature", "properties": { "円/ｍ2": 40000, "対前年変動率%": -4.8, "基準地の地名": "石川（林）", "所在並びに地番": "石川県　輪島市三井町興徳寺九字１０１４番", "前面道路の道路区分": "道路", "基準地周辺の土地利用の状況": "標高１５０ｍ約３０度の東向き傾斜の地域で杉及びあての人工林地域", "都市計画の用途地域": "_", "防火地域": "_", "都市計画区分": "都計外" }, "geometry": { "type": "Point", "coordinates": [ 136.892501110000012, 37.31424611 ] } },
{ "type": "Feature", "properties": { "円/ｍ2": 920000, "対前年変動率%": 0.0, "基準地の地名": "石川（林）", "所在並びに地番": "石川県　金沢市三小牛町壱六字５番１", "前面道路の道路区分": "道路", "基準地周辺の土地利用の状況": "標高１００ｍ約２０度の北東向き傾斜地の杉及び竹林の人工林地域", "都市計画の用途地域": "_", "防火地域": "_", "都市計画区分": "調区" }, "geometry": { "type": "Point", "coordinates": [ 136.66740388, 36.51477888 ] } },
{ "type": "Feature", "properties": { "円/ｍ2": 90000, "対前年変動率%": -4.3, "基準地の地名": "石川（林）", "所在並びに地番": "石川県　鳳珠郡穴水町字岩車壱〇１２番", "前面道路の道路区分": "私道", "基準地周辺の土地利用の状況": "４０～５０年生の松及び雑木が混在する自然林地域", "都市計画の用途地域": "_", "防火地域": "_", "都市計画区分": "都計外" }, "geometry": { "type": "Point", "coordinates": [ 136.97340472, 37.21467972 ] } },
{ "type": "Feature", "properties": { "円/ｍ2": 13000, "対前年変動率%": -1.5, "基準地の地名": "石川（林）", "所在並びに地番": "石川県　白山市白峰八号４９番１外", "前面道路の道路区分": "道路", "基準地周辺の土地利用の状況": "標高約６００ｍ約３０度の西向き傾斜で杉及び雑木の人工林地域", "都市計画の用途地域": "_", "防火地域": "_", "都市計画区分": "都計外" }, "geometry": { "type": "Point", "coordinates": [ 136.60413888, 36.15002 ] } }
]
}
